District;Name;TypeObject;Longitude;Latitude;Рейтинг;Отзывы;Y;Norm Y
Тверской;PastFood;кафе;37.5779449999999930;55.7739257626210400;4,2;10;29,01257217;33,11835157
Тверской;Newada;бар;37.5779449999999930;55.7739257626210400;4,9;38;40,38950609;57,57257098
Тверской;IKI Bar Kitchen;кафе;37.5779449999999930;55.7739257626210400;4,3;6;27,50679752;29,88175514
Тверской;Eleven Meathouse;ресторан;37.5789900000000050;55.7742717627216540;4,3;78;38,53607975;53,58871253
Тверской;Lola Pizza and Bar;бар;37.5789900000000050;55.7742717627216540;4,2;89;38,19398753;52,85340034
Тверской;Мята Platinum;бар;37.5789900000000050;55.7742717627216540;4,4;47;37,20339827;50,72417225
Тверской;Qartuli;ресторан;37.5789900000000050;55.7742717627216540;4,5;33;36,45754986;49,12100389
Тверской;Белка;ресторан;37.5789900000000050;55.7742717627216540;4,2;127;39,68730054;56,06321102
Тверской;Бургер Кинг;предприятие быстрого обслуживания;37.5814189999999750;55.7768897634830620;4,2;176;41,05774756;59,00892664
Тверской;Правда Кофе;кафетерий;37.5839530000000220;55.7751857629874550;4,2;16;30,98658741;37,36141057
Тверской;Kikidze;кафе;37.5842990000000010;55.7753717630415480;4,3;65;37,75209706;51,90357619
Тверской;МАКДОНАЛДС;предприятие быстрого обслуживания;37.5843490000000100;55.7753657630398010;4,4;697;49,06860463;76,2279118
Тверской;ПитаПита;кафе;37.5843490000000100;55.7753657630398010;3,9;6;24,94802566;24,38178748
Тверской;Хинкальная Пил Пили;кафе;37.5847132683984530;55.7786192846772830;4,6;758;51,68492643;81,85158052
Тверской;Донер в Пите;предприятие быстрого обслуживания;37.5847620000000050;55.7756137631119270;4,2;6;26,86710455;28,50676322
Тверской;One more pab;кафе;37.5850695838894000;55.7785885279997000;4,6;743;51,59298466;81,65395573
Тверской;Coffee Streеt;кафетерий;37.5852730000000150;55.7759997632241920;4,2;3;23,95588639;22,24922775
Тверской;SURF COFFEE;кафе;37.5853148680818800;55.7773147132211730;4,4;58;38,12869806;52,71306349
Тверской;Паддис;кафе;37.5853400000000020;55.7769777635086540;4,4;107;40,82319569;58,50476771
Тверской;Маникюр энд бар;бар;37.5853400000000020;55.7769777635086540;5;203;49,59188083;77,35267099
Тверской;Мимино;кафе;37.5853400000000020;55.7769777635086540;4,3;236;43,29670856;63,8214749
Тверской;Биркрафт;бар;37.5853400000000020;55.7769777635086540;4,4;173;42,93723183;63,04879548
Тверской;Кулинарная лавка братьев Караваевых;магазин (отдел кулинарии);37.5853400000000020;55.7769777635086540;4,4;387;46,47981747;70,66342759
Тверской;ЧанЧан;кафе;37.5853400000000020;55.7769777635086540;4,4;420;46,83986955;71,43734371
Тверской;EVA;ресторан;37.5855850000000020;55.7742027627015770;4,7;227;47,14156496;72,08582473
Тверской;Cofix;кафетерий;37.5855889999999920;55.7768057634586330;4,2;82;37,84993562;52,11387587
Тверской;САПЕРАВИ;кафе;37.5856659117780860;55.7757755598965870;4,4;469;47,325401;72,48097223
Тверской;HELP and FRIEND;бар;37.5856703987104000;55.7758168561906000;4,6;358;48,23423459;74,43447009
Тверской;КУ РАМЕН ИЗАКАЯ БАР;кафе;37.5856900000000070;55.7742087627033310;4,4;262;44,76346463;66,97420262
Тверской;Camera Obscura coffee;кафетерий;37.5858530000000000;55.7784157639269650;4;7;26,20432134;27,08213984
Тверской;КИМЧИ;ресторан;37.5858530000000000;55.7784157639269650;4,8;304;49,54654986;77,25523407
Тверской;Starbucks;кафе;37.5858921648790000;55.7782954680399000;4,3;201;42,6064429;62,33777921
Тверской;Остерия Бьянка;ресторан;37.5859652314992000;55.7781994048772000;4,4;271;44,91207163;67,29362682
Тверской;Магадан;ресторан;37.5859757765176350;55.7784518604360930;4,3;73;38,2512074;52,97639192
Тверской;AQKitchen;ресторан;37.5863340610773590;55.7739864033224530;4,7;419;50,0222932;78,27782347
Тверской;ГРАЦИ;ресторан;37.5865803158539000;55.7758595197524000;4;1;18,42068074;10,3515465
Тверской;Булка;кафе;37.5866413583739000;55.7740312260233000;4,3;177;42,05967565;61,16252703
Тверской;Тэмпл бар;бар;37.5867327686758000;55.7735217840113000;4,4;288;45,17977493;67,8690433
Тверской;Corner Burger;кафе;37.5868057121338380;55.7734782163057830;4,4;253;44,60966257;66,64361183
Тверской;Прайм;кафе;37.5869000091808730;55.7790082461778600;4,2;82;37,84993562;52,11387587
Тверской;Upside Down;кафе;37.5869503083091270;55.7736079438376610;4,6;155;44,38353839;66,15756786
Тверской;Теремок;предприятие быстрого обслуживания;37.5870249999999970;55.7782367638748870;4,2;79;37,69339576;51,77740033
Тверской;АВ-Дейли;кафетерий;37.5871228730106710;55.7745692651987640;4,3;42;35,87421116;47,86714298
Тверской;Рыба моя;кафе;37.5871228730106710;55.7745692651987640;4,7;1855;57,01480776;93,30792617
Тверской;Марукамэ;кафе;37.5871739999999830;55.7789737640892940;4,7;283;48,17790029;74,31338199
Тверской;LUCE;кафе;37.5872884202217000;55.7747374332296000;4,4;53;37,73203324;51,86044988
Тверской;Магнум;бар;37.5873310000000200;55.7779077637791760;4,6;117;43,08978296;63,37669741
Тверской;Хлеб насущный;кафе;37.5873310000000200;55.7779077637791760;4,3;249;43,52727925;64,31707647
Тверской;Кофемания;кафе;37.5873310000000200;55.7779077637791760;4,4;420;46,83986955;71,43734371
Тверской;Торро Гриль;ресторан;37.5873310000000200;55.7779077637791760;4,7;1306;55,36550413;89,76282052
Тверской;CUTFISH;кафе;37.5873310000000200;55.7779077637791760;4,1;21;31,36373976;38,17208295
Тверской;Простые вещи;кафе;37.5875883104323000;55.7732895117177000;4,6;462;49,40738135;76,95609749
Тверской;Дача Гашека;ресторан;37.5876059034255000;55.7735946803525000;4,7;249;47,57632849;73,02032983
Тверской;Кофемания;кафе;37.5876112681709000;55.7746804161038000;4,4;115;41,14045018;59,1866923
Тверской;KROMBACHER BEER KITCHEN;ресторан;37.5879875529221000;55.7742584826839000;4,6;281;47,12021433;72,03993251
Тверской;Пиано;бар;37.5881512518203000;55.7743629993173000;4,1;31;32,9605453;41,60434629
Тверской;BOSTON;кафе;37.5882700000000090;55.7786367639912510;4,8;959;55,06109405;89,10850443
Тверской;MOZZA Pizza;ресторан;37.5882700000000090;55.7786367639912510;4,7;148;45,13119756;67,76462838
Тверской;PAUL;кафе;37.5882700000000090;55.7786367639912510;4,5;197;44,49768262;66,40291585
Тверской;Мамина кухня;магазин (отдел кулинарии);37.5886247165423200;55.7723493048821910;4,3;39;35,55554688;47,18218812
Тверской;CHEESE connection;кафе;37.5887859999999990;55.7790027640977330;4,3;130;40,73262994;58,3101006
Тверской;Жажда крови;ресторан;37.5887859999999990;55.7790027640977330;4,5;92;41,07131443;59,03808804
Тверской;Steak it Easy;ресторан;37.5887859999999990;55.7790027640977330;4,6;386;48,58063476;75,17904201
Тверской;Finch Coffee;кафетерий;37.5894160000000140;55.7786277639886380;4,3;12;30,48733039;36,28827955
Тверской;Мята Poke 4you;бар;37.5897709999999850;55.7797817643243620;4,3;58;37,26213675;50,85042803
Тверской;Ай Plov Ю;кафе;37.5897827019675220;55.7903622518165890;4,6;90;41,88290734;60,78257132
Тверской;Прайм;ресторан;37.5907153362433850;55.7712151977244730;3,3;3;18,82248217;11,21520099
Тверской;HURAT'S PUB;бар;37.5907929999999980;55.7734667624875510;4,6;112;42,88887766;62,94486031
Тверской;Теремок;предприятие быстрого обслуживания;37.5908530000000170;55.7711177618045890;4,2;79;37,69339576;51,77740033
Тверской;ВЕРАНДА 14 Beer Pairing;ресторан;37.5908788913208620;55.7797235992744190;4,2;133;39,88118112;56,47994879
Тверской;Кулинарная лавка братьев Караваевых;магазин (отдел кулинарии);37.5909727461777550;55.7714862602793740;4,3;246;43,4751574;64,20504285
Тверской;Тирольские пироги;кафе;37.5910270000000000;55.7725780000000000;4,5;45;37,85324704;52,12099362
Тверской;Хинкальная;кафе;37.5911564209065360;55.7882386889502090;4,2;36;34,39249432;44,68225777
Тверской;Desert rose;ресторан;37.5911669999999990;55.7738797626076560;4,3;241;43,38685861;64,01524848
Тверской;BLACK ANGUS Гамбринус;ресторан;37.5915442197005000;55.7728828368871000;4,4;636;48,6656225;75,36171943
Тверской;Captains coffee;кафетерий;37.5915920000000130;55.7808917646473500;4,2;3;23,95588639;22,24922775
Тверской;Тable;кафе;37.5915920000000130;55.7808917646473500;4,6;147;44,13977275;65,63360433
Тверской;Домино'с Пицца;предприятие быстрого обслуживания;37.5915920000000130;55.7808917646473500;4;95;36,63618831;49,50497938
Тверской;APPLE and PERRY SHED;бар;37.5916169999999990;55.7801437644296880;5;32;40,35453044;57,49739236
Тверской;Мясо и паста;кафе;37.5917979999999970;55.7790107641000570;4,2;93;38,37863265;53,2502869
Тверской;Хинкали Пойнт;кафе;37.5921810000000040;55.7804927645312320;4,4;376;46,35294105;70,39071231
Тверской;Аленка;кафе;37.5925879009323940;55.7724412251572300;4,1;1;18,88119776;11,34140759
Тверской;ПИЛЗНЕР;ресторан;37.5927057446043020;55.7715639199224430;4,4;653;48,78168819;75,61119753
Тверской;Чайхона №1;кафе;37.5927970000000000;55.7714940000000000;4,3;475;46,30448546;70,28655914
Тверской;Якитория;кафе;37.5927970000000000;55.7714940000000000;4,3;382;45,36754042;68,27263696
Тверской;ТРИУМФ;кафе;37.5929195495495000;55.7885289972103000;4,3;96;39,42892902;55,50785279
Тверской;ПаПан;магазин (отдел кулинарии);37.5935169999999910;55.7879877667127530;4,7;24;36,58115288;49,38668313
Тверской;Pho Pho;кафе;37.5937494238786980;55.7877237032601630;4,4;28;34,92444866;45,82567024
Тверской;Mentano;кафе;37.5937714781118610;55.7704388223887970;4,3;88;39,0547801;54,70363613
Тверской;OnePriceCoffee;кафетерий;37.5942569999999920;55.7714217618929520;4,2;9;28,57005801;32,16718682
Тверской;SeDelice Французская пекарня;кафетерий;37.5942820000000000;55.7714117618900500;4,3;58;37,26213675;50,85042803
Тверской;Кофепорт;кафе;37.5943969560627660;55.7870143750042400;4,4;89;40,01274885;56,76274784
Тверской;Баяр;кафе;37.5943969560627660;55.7870143750042400;4,5;139;42,92839854;63,02980869
Тверской;PAPA BARVILLAGE;ресторан;37.5944153622272810;55.7699792210136000;4,6;110;42,80599254;62,76670238
Тверской;СУП;кафе;37.5953113668808070;55.7703971417882510;4,7;1566;56,21881529;91,59697536
Тверской;Кофейня 1554;кафетерий;37.5955139999999940;55.7867527663531750;4,6;89;41,83151016;60,67209533
Тверской;Шоколадница;кафе;37.5956299828426000;55.7759239648047000;4,1;105;37,9624352;52,35568877
Тверской;Кулинарная лавка братьев Караваевых;магазин (отдел кулинарии);37.5957790000000000;55.7718080000000000;4,4;333;45,81857577;69,24211763
Тверской;Кебаб Хаус;предприятие быстрого обслуживания;37.5958199999999890;55.7856027660184000;4,2;40;34,83500849;45,63342252
Тверской;Kill Fish;бар;37.5958199999999890;55.7856027660184000;4,3;333;44,77724451;67,00382184
Тверской;PUB GUNS BEARS;бар;37.5958199999999890;55.7856027660184000;4,5;365;47,27280393;72,36791713
Тверской;Мосдонер;кафе;37.5958593893983210;55.7856361236163000;4,4;349;46,02506528;69,68595774
Тверской;Жаворонки и совы;кафе;37.5958970000000010;55.7711347618095130;4,3;59;37,33564281;51,00842608
Тверской;Studio 46;бар;37.5960310000000000;55.7854170000000000;4,4;154;42,42534027;61,94850706
Тверской;Mendeleev Lounge;кафе;37.5963320000000040;55.7688827611548770;4,7;91;42,84533955;62,85127706
Тверской;Чито Ра;кафе;37.5963700000000000;55.7833487653623270;4,5;319;46,6666258;71,06496389
Тверской;Якитория;кафе;37.5964460000000070;55.7683097609883300;4,4;230;44,19029778;65,74220565
Тверской;KFC;предприятие быстрого обслуживания;37.5964949603601000;55.7700161887316000;4,3;612;47,39418061;72,62881098
Тверской;Иль Патио;ресторан;37.5965449551381000;55.7706352070318000;4,3;418;45,75480196;69,10503862
Тверской;ШПАТЕН-ХАУС;ресторан;37.5966069999999920;55.7707007616833580;4,3;335;44,80299309;67,05916729
Тверской;Lao Lee;кафе;37.5966120000000070;55.7789837640922030;4,6;836;52,13547448;82,82001374
Тверской;СОЛО;кафе;37.5966302373572600;55.7700470419260910;4,3;89;39,10336819;54,80807409
Тверской;Share House;бар;37.5967589999999990;55.7708317617214390;4,7;181;46,07723592;69,79809625
Тверской;PIVBAR;бар;37.5967745571637120;55.7701302842196610;4,7;379;49,55072004;77,26419769
Тверской;SeDelice Французская пекарня;кафе;37.5968649999999870;55.7844697656885980;4,2;5;26,10135401;26,8608161
Тверской;Чайковский;кафе;37.5969373978089000;55.7691642013818000;4,7;342;49,06791034;76,22641946
Тверской;Просвет;кафе;37.5969680000000110;55.7758137631700990;4,7;84;42,46913883;62,04265014
Тверской;VALDO Prosecco Bar;бар;37.5969720000000010;55.7703807615903100;4,3;35;35,09022846;46,18200664
Тверской;Babes Never Die;бар;37.5969720000000010;55.7703807615903100;4,9;55;42,20126652;61,46687038
Тверской;Гастрорюмочная 6 YOU 6;кафе;37.5969720000000010;55.7703807615903100;4,4;28;34,92444866;45,82567024
Тверской;FLIP;кафе;37.5969720000000010;55.7703807615903100;4,1;9;27,88981853;30,70504197
Тверской;Винный бар 13;бар;37.5969866426088900;55.7722603693905870;4,7;158;45,43849653;68,425154
Тверской;Мимино;ресторан;37.5970730355072010;55.7843101059384740;4,2;296;43,24122449;63,70221433
Тверской;Мистер Донер 24;кафе;37.5970730355072010;55.7843101059384740;4,1;2;21,7231012;17,44995412
Тверской;Сабвей;предприятие быстрого обслуживания;37.5973740000000020;55.7839277655308410;4;1;18,42068074;10,3515465
Тверской;PizzaUno;кафе;37.5973740000000020;55.7839277655308410;4,6;25;35,99061165;48,11734072
Тверской;Рыбный Базар;ресторан;37.5974576392925000;55.7653621504589000;4,7;531;51,13568137;80,67100242
Тверской;АВ-Дейли;кафетерий;37.5975504350354800;55.7686472337689030;4,2;33;34,02704654;43,89674382
Тверской;Cofix-Bright;кафе;37.5975504350354800;55.7686472337689030;4,2;82;37,84993562;52,11387587
Тверской;Моремания;кафе;37.5977859999999990;55.7678937608674160;4,9;398;51,89894874;82,31161206
Тверской;Марукамэ;предприятие быстрого обслуживания;37.5977859999999990;55.7678937608674160;4,7;275;48,04312403;74,02368634
Тверской;Прайм стар;кафе;37.5978169999999990;55.7819327649502550;4,2;58;36,39557543;48,98779256
Тверской;Джон Джоли;ресторан;37.5978650000000130;55.7697997614214240;4,5;555;49,15862235;76,42140094
Тверской;Кулинариум;магазин (отдел кулинарии);37.5979384016082460;55.7821992560385810;4,2;30;33,62674378;43,03631064
Тверской;Хет трик;бар;37.5980309999999990;55.7712947618560340;4,4;31;35,37229252;46,78829092
Тверской;Коте Азур;ресторан;37.5980471251085500;55.7813353270554870;4;1;18,42068074;10,3515465
Тверской;DUCKSTARS;бар;37.5980799024525680;55.7677414072701790;4,5;748;50,50157924;79,30802774
Тверской;El Idilio;ресторан;37.5981766818372000;55.7676412272890000;4,7;146;45,067251;67,62717805
Тверской;Шоколадница;кафе;37.5982437599817000;55.7683568498703000;4,2;216;41,91788409;60,85775231
Тверской;Dry and wet Bar;ресторан;37.5982925580481000;55.7680590620305000;4,7;180;46,05119707;69,74212689
Тверской;Roaster coffee;кафе;37.5984110000000000;55.7718840000000000;4,4;327;45,73857357;69,07015641
Тверской;We Cidreria;ресторан;37.5985311570000180;55.7679816820000200;4,9;788;55,24587455;89,50568199
Тверской;Дабл Би;кафетерий;37.5985530000000100;55.7789757640898860;4,3;44;36,07424723;48,29711171
Тверской;Osteria Unica;ресторан;37.5986070000000150;55.7675097607558290;4,5;68;39,71105051;56,11426053
Тверской;Вьет кафе;кафе;37.5986448924930000;55.7779369302355000;4,4;133;41,78028498;60,56198907
Тверской;Tako Project;кафе;37.5986710000000030;55.7790607641145970;4,4;65;38,63005281;53,79070347
Тверской;Хмель и Эль;ресторан;37.5987053000000000;55.7650170000000000;4,6;215;45,88871778;69,3928848
Тверской;MOSCOW;кафе;37.5987120719560000;55.7702746097930000;4,6;110;42,80599254;62,76670238
Тверской;Траттория Венеция;кафе;37.5988882225796000;55.7715435918733000;4,4;227;44,1325289;65,61803397
Тверской;Smoker street;бар;37.5989149999999980;55.7780547638219490;4,6;108;42,7215865;62,58527531
Тверской;Хлеб насущный;кафе;37.5989834627268210;55.7810890824221060;4,3;124;40,52944253;57,8733582
Тверской;Чайхона Xaliflife;кафе;37.5991459999999830;55.7736387625375730;4,8;74;42,76432934;62,67714917
Тверской;Де Марко;кафе;37.5991604493297590;55.7703818904084660;4,3;159;41,59851987;60,17129295
Тверской;Прогресс;кафе;37.5991604493297590;55.7703818904084660;4,4;56;37,97429626;52,3811836
Тверской;А-Петит;кафе;37.5992200000000000;55.7737020000000000;4;8;26,73844691;28,23021928
Тверской;Чайхона №1;ресторан;37.5993527467662360;55.7817897326965590;4,3;456;46,12895088;69,90925528
Тверской;Батони;кафе;37.5993872375970430;55.7823077031700480;4,4;282;45,08713993;67,66992844
Тверской;MEATSTREET;кафе;37.5994239999999920;55.7823037650582170;4,3;79;38,59085757;53,70645503
Тверской;HAPPY END BAR END KITCHEN;ресторан;37.5995213639533000;55.7646501390427000;4,4;139;41,97443412;60,97930412
Тверской;Фрау Бротхен;кафе;37.5995709999999970;55.7784607639400530;5;107;46,3899951;70,47035836
Тверской;Пан Запекан;магазин (отдел кулинарии);37.5995739999999970;55.7813857647910680;4,2;171;40,93670172;58,74874393
Тверской;Макдоналдс;предприятие быстрого обслуживания;37.5995739999999970;55.7813857647910680;4,1;120;38,50991391;53,53247019
Тверской;Camera Obscura coffee;кафетерий;37.5995739999999970;55.7813857647910680;4,8;22;36,94182067;50,1619227
Тверской;Биркрафт;бар;37.5996309999999810;55.7823477650710160;4,4;31;35,37229252;46,78829092
Тверской;ТАН;ресторан;37.5996759512215000;55.7717741261563000;4,3;175;42,01081149;61,05749566
Тверской;MD Mendeleev coffee;кафетерий;37.5998299999999970;55.7684897610406410;4,6;353;48,16953592;74,29540313
Тверской;Leviathan;бар;37.5998590000000020;55.7810297646874820;4,7;58;40,72838202;58,3009699
Тверской;ДЖОН ДЖОЛИ;ресторан;37.5998758024263180;55.7810998608067340;4,5;554;49,15050693;76,4039572
Тверской;Дымовуха;бар;37.5998759999999950;55.7827307651825000;4,8;73;42,69902221;62,53677436
Тверской;FRANKIE;кафе;37.5998850000000080;55.7681067609293350;4,3;7;28,16964544;31,30651761
Тверской;KFC;предприятие быстрого обслуживания;37.6000257048832650;55.7799308206280740;4,3;612;47,39418061;72,62881098
Тверской;ONE and DOUBLE;кафетерий;37.6001309999999980;55.7785827639755420;4,1;32;33,09071496;41,88414025
Тверской;Наше;бар;37.6001750000000070;55.7672627606840190;4,4;68;38,82858272;54,2174348
Тверской;Примавера;кафе;37.6001810000000000;55.7827950000000000;4,5;172;43,88699098;65,09026102
Тверской;СОЛО;бар;37.6002399999999850;55.7829577652485400;4,3;147;41,26109192;59,44600641
Тверской;Кулинарная лавка братьев Караваевых;магазин (отдел кулинарии);37.6002460813935430;55.7789213558156480;4,4;183;43,18448789;63,58026151
Тверской;Рынок и общепит ШУК;кафе;37.6002854363158720;55.7789325763904100;4,5;793;50,76447033;79,8731006
Тверской;ПРАЙМ;кафе;37.6003085960243690;55.7804138028068480;4,2;30;33,62674378;43,03631064
Тверской;Шоколадница;кафе;37.6003085960243690;55.7804138028068480;4,2;270;42,85508701;62,87222879
Тверской;Пороселло;кафе;37.6003440000000000;55.7820017649703460;4,4;265;44,81356005;67,08188051
Тверской;Хинкальная Зандукели;кафе;37.6004410000000000;55.7733320000000000;4,4;33;35,64738209;47,37958387
Тверской;Guilty Pleasure;ресторан;37.6004479999999930;55.7720997620900720;4,4;13;31,54852599;38,56927284
Тверской;Coffee Mouse;кафетерий;37.6004479999999930;55.7720997620900720;4,3;13;30,83151404;37,02808716
Тверской;SEMENOV;бар;37.6004499999999880;55.7789467640814250;4,5;69;39,77674511;56,25546817
Тверской;Теремок;предприятие быстрого обслуживания;37.6005341530053000;55.7794263134560000;4,3;78;38,53607975;53,58871253
Тверской;Pho Ly Quoc Su;кафе;37.6006019999999810;55.7818057649132870;4,7;44;39,42999115;55,51013579
Тверской;Мята Lounge;кафе;37.6006019999999810;55.7818057649132870;5;196;49,41642423;76,97553474
Тверской;Станция «Пельменная»;кафе;37.6006019999999810;55.7818057649132870;4,8;18;35,97860133;48,09152507
Тверской;КабКао;кафе;37.6006120000000050;55.7825567651318370;4,3;36;35,21136324;46,4423805
Тверской;Порто Миконос;кафе;37.6006217219161980;55.7832938424526720;4,3;298;44,29973379;65,97743355
Тверской;Траттория Семпличе;кафе;37.6006323344795210;55.7786413941842060;4,4;105;40,74017436;58,326317
Тверской;Кофе Бин;кафе;37.6006323344795210;55.7786413941842060;4,3;108;39,93539608;56,59648146
Тверской;Мясо и рыба;ресторан;37.6006763323983010;55.7668316563339840;4,7;577;51,52615853;81,51031589
Тверской;Сон Менделеева;бар;37.6006860000000030;55.7824577651030470;4,4;159;42,56592731;62,25069272
Тверской;ТехникаБезОпасности;ресторан;37.6006860000000030;55.7824577651030470;4,5;236;45,31050896;68,15005035
Тверской;SeDelice Французская пекарня;кафетерий;37.6007310000000170;55.7790147641012340;3,4;17;25,290504;25,11792964
Тверской;Коптильня;ресторан;37.6008459999999900;55.7821647650177610;4,3;697;47,95340907;73,83084796
Тверской;КОФЕПОРТ;кафе;37.6008479999999990;55.7677787608339910;4,3;19;32,46331941;40,53558109
Тверской;NOOR Bar;бар;37.6009216532990000;55.7668872021784000;4,7;501;50,86234855;80,08348552
Тверской;Молодежь;кафе;37.6009239999999920;55.7823537650727770;4,4;701;49,09378352;76,28203273
Тверской;Барное объединение ПРОФСОЮЗ;бар;37.6009239999999920;55.7823537650727770;4,6;632;50,84867407;80,05409283
Тверской;Кофемания;кафе;37.6009962016897390;55.7675794551319580;4,3;92;39,24592268;55,1144887
Тверской;Домино'с Пицца;кафе;37.6010262153453920;55.7858809864054950;4;95;36,63618831;49,50497938
Тверской;CHEHONTE;ресторан;37.6010880666910130;55.7676673404219870;4,2;5;26,10135401;26,8608161
Тверской;РУКИ ВВЕРХ;бар;37.6010880666910130;55.7676673404219870;4,7;1071;54,43313581;87,75873578
Тверской;Кулинарная лавка братьев Караваевых;магазин (отдел кулинарии);37.6011876700197120;55.7833585680341880;4,4;183;43,18448789;63,58026151
Тверской;Ландринъ;кафе;37.6012591885289000;55.7803921732482000;4,4;70;38,95612788;54,49158752
Тверской;Брусника;магазин (отдел кулинарии);37.6013350000000060;55.7711227618060330;4,5;217;44,93280393;67,33818998
Тверской;Фудхолл Дружба;предприятие быстрого обслуживания;37.6013670000000030;55.7800307643968130;4,6;87;41,7269602;60,4473698
Тверской;Настоишная;кафе;37.6014954312423000;55.7819195988480000;4,7;116;43,98617377;65,30345007
Тверской;Типси паб;кафе;37.6015910000000000;55.7805520000000000;4,7;542;51,23205008;80,87814272
Тверской;SeDelice Французская пекарня;кафе;37.6016279999999910;55.7661077603483760;4,3;68;37,94611493;52,32060907
Тверской;SeDelice;кафе;37.6016289999999960;55.7809037646508160;4,2;5;26,10135401;26,8608161
Тверской;Суши Wok;закусочная;37.6016290000000030;55.7809047646511190;3,4;116;31,81978528;39,15233277
Тверской;ДРУЖБА;ресторан;37.6018290000000090;55.7800257643953690;4,4;177;43,03780764;63,26497876
Тверской;Милти;магазин (отдел кулинарии);37.6018290000000090;55.7800257643953690;4,2;4;25,1641511;24,84633962
Тверской;Пять вкусов;кафе;37.6019640000000020;55.7648507599831120;4,4;17;32,72888753;41,10640809
Тверской;Mike's coffee;кафе;37.6019640000000020;55.7648507599831120;3,8;2;20,13360599;14,03340403
Тверской;Палаш;кафетерий;37.6019640000000020;55.7648507599831120;4,2;3;23,95588639;22,24922775
Тверской;GINA CAFE;кафе;37.6020639999999990;55.7653887601394520;4,3;10;29,7033477;34,60314321
Тверской;Starbucks;кафе;37.6021263975025000;55.7795195341481000;4,2;119;39,41403345;55,47583541
Тверской;The LOFT cafe and Lobby bar;бар;37.6023970000000180;55.7699767614728760;4,2;12;29,77832271;34,7642987
Тверской;BOWLROOM;кафе;37.6025330000000010;55.7641227597715880;4,4;104;40,69806877;58,2358129
Тверской;Cofix;кафетерий;37.6025330000000010;55.7641227597715880;4,3;69;38,00888977;52,45554083
Тверской;Чебуречная СССР;кафе;37.6025645395634670;55.7641349597743460;4,7;517;51,01010138;80,40107375
Тверской;One Double Cofe;кафе;37.6025645395634670;55.7641349597743460;4,1;32;33,09071496;41,88414025
Тверской;Я дома;кафе;37.6025690000000100;55.7650907600528500;4,2;52;35,9369384;48,00197243
Тверской;Cofix;кафетерий;37.6025799999999960;55.7776407637015050;4,3;24;33,46786327;42,69480396
Тверской;CRAFTER;бар;37.6026239999999920;55.7652727601057450;4,6;210;45,7804775;69,16022706
Тверской;Штолле;предприятие быстрого обслуживания;37.6026349999999850;55.7666037604925150;4,2;13;30,11450208;35,48690148
Тверской;Borrachitos;бар;37.6026649999999950;55.7675507607677190;4,6;89;41,83151016;60,67209533
Тверской;Прайм;кафе;37.6027682233960120;55.7658111367680930;4,2;30;33,62674378;43,03631064
Тверской;СINNABON;кафе;37.6027682233960120;55.7658111367680930;4,2;42;35,03992718;46,07388623
Тверской;Шоколадница;кафе;37.6027700000000000;55.7658287602673040;4,2;270;42,85508701;62,87222879
Тверской;МАКДОНАЛДС;предприятие быстрого обслуживания;37.6029091881872000;55.7646312620702000;4,5;2082;55,10814496;89,20963829
Тверской;Якитория;кафе;37.6031059999999970;55.7768477634708400;4,4;230;44,19029778;65,74220565
Тверской;EVERYTHINGS WAFFLE;кафе;37.6031059999999970;55.7768477634708400;4,4;35;35,90628029;47,93607417
Тверской;SleepTom;кафе;37.6031215333166740;55.7700536747781680;4,3;21;32,89367828;41,46061857
Тверской;Ламбик;кафе;37.6031460195955920;55.7752563734002250;4,6;354;48,18254866;74,32337344
Тверской;Starbucks;кафе;37.6034097860132090;55.7738770718107090;4,2;82;37,84993562;52,11387587
Тверской;Правда кофе;кафе;37.6036310000000000;55.7760410000000000;4,1;5;25,4798932;25,5250134
Тверской;Surf Coffeе;кафетерий;37.6036840000000010;55.7732927624369670;4,4;32;35,51198679;47,08855762
Тверской;Грабли;ресторан;37.6038600000000000;55.7662289990000000;4,3;735;48,18167495;74,32149544
Тверской;ГлавПивМаг;бар;37.6040302340512940;55.7659126194048800;4,3;100;39,6044636;55,88515665
Тверской;EAT MARKET;ресторан;37.6040302340512940;55.7659126194048800;4,3;54;36,9548632;50,18995705
Тверской;Subway;кафе;37.6041225412427020;55.7797377493588510;4,1;39;33,90180051;43,62753299
Тверской;То Да Сё;кафе;37.6042410000000000;55.7661470000000000;4,1;924;46,87891726;71,52127504
Тверской;ВОЛНА;ресторан;37.6045134373251390;55.7629981442020290;4,5;155;43,41867886;64,08364471
Тверской;Ленский;ресторан;37.6045384210679640;55.7674030765404610;4,1;18;30,73172197;36,8135885
Тверской;Сэлэнгэ;ресторан;37.6047791210449000;55.7703379204818000;4,4;288;45,17977493;67,8690433
Тверской;Диско 90-х;ресторан;37.6048052778212000;55.7669289097129000;4,2;438;44,8870342;67,23980997
Тверской;Look in Rooms;кафе;37.6048688476489590;55.7660231116657390;4,3;453;46,10056794;69,8482474
Тверской;FARШ;кафе;37.6049430000000060;55.7660707603376340;4,3;84;38,85474403;54,27366739
Тверской;Кузина;кафетерий;37.6049430000000060;55.7660707603376340;4,2;13;30,11450208;35,48690148
Тверской;ОnePriceCoffee;кафетерий;37.6049430000000060;55.7660707603376340;4,3;21;32,89367828;41,46061857
Тверской;Турандот;ресторан;37.6050547333284300;55.7636670120602740;4,7;809;53,11455478;84,92450383
Тверской;ФАРЕНГЕЙТ;ресторан;37.6050547333284300;55.7636670120602740;4,4;220;43,99471002;65,32179837
Тверской;КАФЕ ПУШКИНЪ;ресторан;37.6050547333284300;55.7636670120602740;4,6;1525;54,90063143;88,76359707
Тверской;PLOV PROJECT;ресторан;37.6050720000000070;55.7717757619958830;4,5;380;47,45403647;72,75746852
Тверской;Кондитерская кафе Пушкинъ;кафе;37.6051290000000050;55.7636897596457860;4,8;158;46,40527305;70,50319764
Тверской;БУТЧЕР;ресторан;37.6051860450906000;55.7713168037438000;4,7;237;47,34418254;72,52134232
Тверской;Кулинарная лавка братьев Караваевых;магазин (отдел кулинарии);37.6052130000000060;55.7695497613487490;4,4;74;39,20063523;55,01714531
Тверской;Чехов;кафе;37.6053339999999990;55.7688217611371470;4,2;4;25,1641511;24,84633962
Тверской;АРМЕНИЯ;ресторан;37.6053595370626000;55.7640886225170000;3,7;377;38,98843688;54,56103429
Тверской;РОССО;бар;37.6053989999999980;55.7674157607284970;4,5;13;32,26553795;40,11045852
Тверской;Ред 36;кафе;37.6055131721084000;55.7799065352665000;4,1;31;32,9605453;41,60434629
Тверской;Eхtra Virgin;ресторан;37.6055885886097000;55.7677930838412000;4,4;111;40,9846817;58,8518748
Тверской;Ровесник;кафе;37.6056609999999980;55.7625567593166310;4,6;627;50,81213694;79,97555788
Тверской;BRUXX;бар;37.6058816288874240;55.7712233782420340;4,8;774;54,03236189;86,89728986
Тверской;CROSS KEYS PAB;ресторан;37.6059210000000000;55.7670280000000000;4,8;293;49,36964542;76,87498575
Тверской;Братец кролик;кафе;37.6059922090068000;55.7806349026872000;4,1;28;32,54323625;40,70735883
Тверской;ПАПА НЬОККИ;бар;37.6061049999999780;55.7671707606572940;4,9;148;47,05167405;71,89260818
Тверской;Кикидзе;кафе;37.6061049999999780;55.7671707606572940;4,3;49;36,53705908;49,29190546
Тверской;Сыто Пьяно;кафе;37.6061590000000050;55.7638167596826760;4,3;442;45,99486429;69,62104206
Тверской;Pho +7;кафе;37.6063340000000000;55.7723700000000000;4,4;54;37,81427862;52,03723272
Тверской;Кофемаус;кафетерий;37.6064034685246180;55.7723976694285850;4,2;32;33,89780557;43,61894604
Тверской;Шоколадница;кафе;37.6065127752707000;55.7635937230866000;4,2;163;40,73546562;58,31619579
Тверской;Craft RePUBlic;бар;37.6066072076309370;55.7628465835320600;4,6;217;45,93131068;69,48443636
Тверской;ШОКОЛАДНИЦА;кафе;37.6066473107279000;55.7671729880364000;4,1;63;35,86805014;47,85390014
Тверской;МУ-МУ;кафе;37.6066854221939000;55.7628402244174000;4,3;361;45,12440702;67,75003241
Тверской;Челси;кафе;37.6067568889928200;55.7624855352839720;4,4;247;44,5040575;66,41661838
Тверской;Too Much;ресторан;37.6067568889928200;55.7624855352839720;4,5;209;44,76376997;66,97485892
Тверской;Чихо;кафе;37.6067710000000090;55.7672997606947830;4,3;9;29,25029748;33,62933168
Тверской;Все твои друзья;бар;37.6069280165764180;55.7624120211734460;4,5;315;46,60984271;70,94291114
Тверской;SeDelice Французская пекарня;кафе;37.6069910000000010;55.7630907594717660;4,3;68;37,94611493;52,32060907
Тверской;Практика;ресторан;37.6070317101638950;55.7678160821298190;4,8;294;49,38599978;76,91013873
Тверской;Чайхона №1;ресторан;37.6070526523624000;55.7661804856090000;4,3;1173;50,19170715;78,64197131
Тверской;YURA;ресторан;37.6070530000000000;55.7650630000000000;4,4;52;37,64822118;51,68029955
Тверской;Вареничная №1;кафе;37.6070844966116770;55.7642780635579170;4,5;598;49,49442423;77,14319232
Тверской;BRUNDI;кафе;37.6071184347048090;55.7777557426105590;4,2;17;31,24121083;37,9087124
Тверской;БУРГЕР ХИРОУС;кафе;37.6071219999999970;55.7659977603164170;4,7;794;53,02659214;84,735432
Тверской;Кулинарная лавка братьев Караваевых;магазин (отдел кулинарии);37.6071969787281620;55.7770694082418430;4,3;262;43,74611317;64,78745035
Тверской;Кофе МСК;кафетерий;37.6072949999999930;55.7775307636695100;4,1;7;26,85942937;28,49026576
Тверской;Pizza Hut;кафе;37.6072949999999930;55.7775307636695100;3,7;135;35,18864637;46,3935516
Тверской;Одесса мама;ресторан;37.6073068126203000;55.7637279108880000;4,3;61;37,47898942;51,31654331
Тверской;Мама будет рада;кафе;37.6074224404250260;55.7662005404588110;4,6;297;47,37495069;72,58747712
Тверской;ForteПьяно;бар;37.6075060000000010;55.7674477607377880;4,6;102;42,4586578;62,02012162
Тверской;Библиiteka;бар;37.6075060000000010;55.7674477607377880;4,4;81;39,5983251;55,87196221
Тверской;РЕСТОРАН «ГУБЕРНАТОРСКИЙ»;ресторан;37.6075581030605000;55.7607480066406000;4,1;15;29,98420359;35,20683059
Тверской;Хлеб и Вино;кафе;37.6075697450149140;55.7638389134766190;4,4;185;43,23231445;63,68306259
Тверской;Пиццаменто;кафе;37.6075697450149140;55.7638389134766190;4,5;305;46,46466883;70,63086626
Тверской;Иль Патио Планета Суши;ресторан;37.6075740000000000;55.7806890000000000;4;31;32,15662956;39,87636474
Тверской;Счастье;кафе;37.6075794597651000;55.7673007594675000;4,5;857;51,11373647;80,62383281
Тверской;Sol х Magneto;бар;37.6075989999999860;55.7636697596399880;4,9;80;44,03726442;65,41326718
Тверской;Мост;бар;37.6075989999999860;55.7636697596399880;4,3;57;37,18735225;50,68968204
Тверской;Щас спою;бар;37.6076809999999920;55.7662517603902190;4,2;23;32,51079049;40,63761808
Тверской;Don Caliano;бар;37.6076809999999920;55.7662517603902190;4,3;60;37,40791342;51,16376857
Тверской;Тебурасика;ресторан;37.6077630000000000;55.7675900000000000;4,4;209;43,76901953;64,83668657
Тверской;ЧАЙХОНА АЙВА;кафе;37.6078220697626970;55.7650370276568810;4,4;178;43,06259644;63,31826119
Тверской;Либерто;кафе;37.6078384307978200;55.7809871575951850;4,2;35;34,27417664;44,42793911
Тверской;Брусника;магазин (отдел кулинарии);37.6078640000000060;55.7770667635345560;4,4;118;41,25376117;59,43024927
Тверской;Эль кафе;кафетерий;37.6078640000000060;55.7770667635345560;4;26;31,4530669;38,36408771
Тверской;KFC;ресторан;37.6078999505008370;55.7653981864525010;4,2;315;43,50251986;64,26385725
Тверской;Онегин;бар;37.6080660000000010;55.7651867600807450;4,4;90;40,06191137;56,86842052
Тверской;Beer and Fries;бар;37.6080660000000010;55.7651867600807450;4,6;127;43,46704345;64,18760227
Тверской;Бистро Халяль;кафе;37.6081130000000000;55.7804810000000000;4,1;34;33,33927591;42,41841109
Тверской;МамаМай;кафе;37.6081179999999760;55.7754577630665480;4,2;5;26,10135401;26,8608161
Тверской;Kozlovna на Пушкинской Пилзнер;ресторан;37.6081410000000030;55.7664547604492070;4,5;249;45,55180387;68,66870315
Тверской;ЭХО;бар;37.6081410000000030;55.7664547604492070;4,5;299;46,37526192;70,43869003
Тверской;White Eagles Pub;бар;37.6081636616446890;55.7648253844018460;4,7;464;50,50175727;79,30841042
Тверской;Ламбик;кафе;37.6082319247473150;55.7672048095371120;4,7;295;48,37308405;74,73292089
Тверской;Север;бар;37.6082595616309730;55.7650171843744220;4,4;122;41,40044142;59,74553202
Тверской;PUSHKA;бар;37.6082595616309730;55.7650171843744220;4,8;38;39,56523046;55,80082674
Тверской;Восемь градусов;бар;37.6082595616309730;55.7650171843744220;4,6;53;39,44712566;55,54696566
Тверской;Венеция;ресторан;37.6082613617629000;55.7650975971443000;4,4;426;46,90228194;71,57149641
Тверской;Slice NYK Pizza;кафе;37.6083071930925000;55.7656965398718000;4,2;56;36,24819188;48,67099811
Тверской;Прайм;кафе;37.6084370456978120;55.7619159943855820;4,2;49;35,68736003;47,4655147
Тверской;Бирмаркет;бар;37.6084502008544350;55.7652061653848610;4,6;277;47,05426338;71,89817384
Тверской;Крафт Стейшн;бар;37.6084502008544350;55.7652061653848610;4,4;232;44,22839325;65,8240902
Тверской;Последняя капля;кафе;37.6085530791685000;55.7650080849780000;4,5;300;46,39028697;70,47098573
Тверской;Шамайка House;кафе;37.6085620000000060;55.7746297628257540;4,7;46;39,63891444;55,95920721
Тверской;Бокончино;ресторан;37.6085623008986000;55.7672614093460000;4,5;197;44,49768262;66,40291585
Тверской;Бирхаус;кафе;37.6085926679442000;55.7642194841493000;4,4;946;50,41261612;79,11680544
Тверской;ГАЛКИ;кафе;37.6086609999999980;55.7646907599366270;4,5;385;47,51286084;72,88390892
Тверской;Ресторан «Веранда 32.05»;ресторан;37.6086722908514940;55.7703881363441740;4,5;506;48,74268085;75,52735297
Тверской;Кафе «Travelers coffee»;кафе;37,60567229;55.7703881363441740;4,3;164;41,73165744;60,45746631
Тверской;САМАРГАЛО;кафе;37.6086800000000000;55.7765807633931840;4,3;12;30,48733039;36,28827955
Тверской;Чайхона Foood bazar;ресторан;37.6090650000000000;55.7702640000000000;4,2;74;37,41878817;51,18714338
Тверской;Бургер Кинг;предприятие быстрого обслуживания;37.6090749999999830;55.7613157589561440;4,2;258;42,66414504;62,46180741
Тверской;Под мухой;кафе;37.6092683631581930;55.7656435467056040;4,7;599;51,70202939;81,88834257
Тверской;HOOKAH.BAR.KITCHEN;кафе;37.6093990856178880;55.7676130615824800;4,9;375;51,60727144;81,68466453
Тверской;Вьеткафе;ресторан;37.6095768438409000;55.7566836646169000;4,3;164;41,73165744;60,45746631
Тверской;Кафе «Шенк»;кафе;37.6095768438409000;55.7566836646169000;3,9;22;30,01522929;35,27351898
Тверской;Ливанец;кафе;37.6096724175081000;55.7631926207576000;4,5;372;47,35828818;72,55166178
Тверской;Хлеб насущный;кафе;37.6096962926647290;55.7659423566916960;4,4;143;42,09926519;61,24762301
Тверской;Джеффрис кофе;кафетерий;37.6096962926647290;55.7659423566916960;4,9;14;35,49671483;47,05573121
Тверской;Джон Джоли;ресторан;37.6096962926647290;55.7659423566916960;4,6;360;48,2598614;74,48955378
Тверской;Гретель;кафе;37.6097120000000090;55.7660397603286100;4,3;175;42,01081149;61,05749566
Тверской;Винил и вино;бар;37.6097139999999900;55.7728247623008850;4,6;119;43,16775092;63,54428613
Тверской;Мята Lounge;бар;37.6097139999999900;55.7728247623008850;5;255;50,73216866;79,80366956
Тверской;911;бар;37.6098410000000100;55.7632567595200040;4,2;24;32,68954087;41,02183417
Тверской;Молодость;бар;37.6098817914278310;55.7597951399338000;4,4;28;34,92444866;45,82567024
Тверской;Rus Lounge;кафе;37.6099699999999970;55.7805067645353030;4,9;74;43,65525287;64,59215013
Тверской;Телебистро;бар;37.6101108459195710;55.7574779530605300;4,4;111;40,9846817;58,8518748
Тверской;Корчма Тарас Бульба;ресторан;37.6101484873551120;55.7506432964585700;4,4;1095;51,05619124;80,50014188
Тверской;ДУМА;кафе;37.6102152027922540;55.7566643784794560;4,5;250;45,56983997;68,70747095
Тверской;МАКДОНАЛДС;предприятие быстрого обслуживания;37.6102703541586000;55.7586891747794000;4,4;996;50,63923675;79,60391652
Тверской;Black Hat;бар;37.6103258056006520;55.7726266133727930;4,6;373;48,42304359;74,84030672
Тверской;St.Peters and St.Anton;бар;37.6104049999999860;55.7567807576391130;4,6;255;46,67359516;71,07994423
Тверской;SUPERNOVA;кафе;37.6104599999999890;55.7724947622049140;4,4;70;38,95612788;54,49158752
Тверской;Тwins Garden;ресторан;37.6105297793002000;55.7662379487457000;4,7;439;50,24144712;78,74888518
Тверской;Кофейня «T&W»;кафе;37.6105360000000100;55.7806907645888470;4;8;26,73844691;28,23021928
Тверской;Smoke family;кафе;37.6105360000000100;55.7806907645888470;4,8;64;42,06745569;61,17924989
Тверской;ЛАТТЕ;кафетерий;37.6106839999999990;55.7707597617004960;3,8;4;22,76756528;19,69498374
Тверской;Delicatessen;кафе;37.6107201973142000;55.7726900264675000;4,9;347;51,22702533;80,86734224
Тверской;Якитория;кафе;37.6107901472420000;55.7607711240584000;4,4;146;42,19061795;61,44398176
Тверской;The Бык;ресторан;37.6108420000000050;55.7662067603771450;4,7;183;46,12888479;69,90911323
Тверской;Моремания;кафе;37.6108420000000050;55.7662067603771450;4,9;399;51,91124485;82,33804203
Тверской;Менза;кафе;37.6109896435460700;55.7654597061555250;4,3;171;41,91138509;60,843783
Тверской;Вилла паста;ресторан;37.6109984873488440;55.7654464957251360;4,3;360;45,11247913;67,72439394
Тверской;Коt Шрёdiнгера;кафе;37.6110070000000010;55.7654427601551390;4,6;343;48,03734291;74,01126008
Тверской;То Да Сё;кафе;37.6113477070107220;55.7581237164840430;4,2;541;45,77407575;69,14646679
Тверской;Шоколадница;кафе;37.6114873285469570;55.7651534342108450;4;81;35,99847736;48,13424772
Тверской;Чайная высота ПУЭРОПОРТ;кафе;37.6115080000000010;55.7601857586279270;4,3;81;38,69836316;53,93753359
Тверской;STAG'S HEAD PUB;бар;37.6115489999999970;55.7582147580555230;4,7;156;45,37862311;68,29645872
Тверской;NEON MONKEY;бар;37.6115679999999910;55.7654377601536740;4,7;224;47,07903632;71,95142217
Тверской;КМ 20;ресторан;37.6116176640902750;55.7612794616812120;4,7;140;44,87001926;67,2032371
Тверской;LAW аnd SON BAR;бар;37.6117363921424680;55.7729842346473110;4,5;328;46,79182707;71,33407853
Тверской;69 Pints;бар;37.6120170000000020;55.7574037578200220;4,6;107;42,67879549;62,49329793
Тверской;Да Пино;ресторан;37.6121327557448000;55.7757275461562000;4,5;569;49,27072779;76,66236666
Тверской;ТЕАТР КОРША;ресторан;37.6123565533779000;55.7659897544575000;4,4;169;42,83430316;62,82755483
Тверской;Авокадо;кафе;37.6124875805327000;55.7579810436051000;4,5;149;43,24102421;63,70178385
Тверской;Салют;кафе;37.6124900000000010;55.7669147605829000;4,6;294;47,32824979;72,48709557
Тверской;Жан Жак;кафе;37.6125015007135000;55.7621709792789000;4,4;151;42,3387801;61,76244978
Тверской;ШВАРЦ КАЙЗЕР;кафе;37.6125064662686630;55.7808836298290060;4,3;48;36,44839615;49,10132838
Тверской;Lamberti;ресторан;37.6129320000000080;55.7571327577413310;4,7;39;38,86303961;54,29149837
Тверской;Чехов;ресторан;37.6130411669300000;55.7598696692578000;4,4;106;40,78188083;58,41596324
Тверской;STERЕO PEOPLE;бар;37.6130547267666340;55.7618930557721480;4,7;158;45,43849653;68,425154
Тверской;Гадкий кайот;бар;37.6131070157505150;55.7622255827563010;4,3;439;45,96557928;69,5580952
Тверской;Q2 LOUNGE;ресторан;37.6131165248234000;55.7574131336283000;4,4;66;38,69722968;53,93509722
Тверской;Тап и Баррель Паб;ресторан;37.6131259746527040;55.7622202212008700;4,6;712;51,39694125;81,23256903
Тверской;SEMPRE;ресторан;37.6132119253608720;55.7634386761275070;4,7;1213;55,01830385;89,01652877
Тверской;STAIRS;ресторан;37.6132372006542000;55.7686579562923000;4,2;34;34,15242898;44,16624788
Тверской;TRUE COST;ресторан;37.6133330000000040;55.7623087592445900;4,4;345;45,97434425;69,57693513
Тверской;Connoly Station;бар;37.6133330000000040;55.7623087592445900;4,8;785;54,10009874;87,04288724
Тверской;SEMENOV;бар;37.6133330000000040;55.7623087592445900;4,4;145;42,16037728;61,37898077
Тверской;Kaif Provenance;ресторан;37.6133330000000040;55.7623087592445900;4,3;523;46,7184321;71,17631924
Тверской;Япоша;бар;37.6133530000000040;55.7622727592341290;4,5;127;42,52210773;62,15650446
Тверской;NOBU;кафе;37.6133793384146000;55.7628576708538000;4,3;66;37,81774719;52,04468826
Тверской;Доктор Живаго;ресторан;37.6134132324214220;55.7567020751887630;4,8;2756;60,12818793;100
Тверской;Rose bar;ресторан;37.6134818271666590;55.7628730596666030;4,4;178;43,06259644;63,31826119
Тверской;Бар - ресторан Новиков;ресторан;37.6135401645452000;55.7571491350341000;4,3;95;39,38390243;55,41107011
Тверской;BROandN;кафе;37.6135440198922000;55.7598173940887000;4,6;37;37,79400525;51,99365601
Тверской;Starbucks;кафе;37.6135507845950000;55.7598218603168000;4,4;86;39,86187692;56,43845527
Тверской;Белуга;ресторан;37.6136510754421710;55.7567744285501730;4,4;132;41,74707728;60,49061057
Тверской;SVOY;бар;37.6136580000000010;55.7667597605378590;4,7;138;44,80239219;67,05787569
Тверской;Чайхона №1;кафе;37.6136819734780940;55.7597155457088720;3,9;73;34,69295555;45,32808596
Тверской;Диспут;кафе;37.6136870000000060;55.7619857591507540;4,7;36;38,48683888;53,48287144
Тверской;Hidden bar;бар;37.6136917826952000;55.7598224653735000;4,6;323;47,76098354;73,41723776
Тверской;КЛЕВО;ресторан;37.6137215656270000;55.7676120125340000;4,7;704;52,46115815;83,52005648
Тверской;Прогресс WokPhoMi;кафе;37.6137269999999900;55.7730427623642700;4,1;11;28,71256838;32,47350661
Тверской;CATCH;ресторан;37.6139087006200000;55.7681660114374000;4,4;314;45,56007796;68,68648794
Тверской;ТОТО;кафе;37.6139289999999920;55.7636537596353390;4,6;53;39,44712566;55,54696566
Тверской;Ла Маре;ресторан;37.6139567647775000;55.7677925357647000;4,5;88;40,8712815;58,60812605
Тверской;ЭZO;кафе;37.6140595485826100;55.7599302842948820;4,3;112;40,09177695;56,93261527
Тверской;Краснодар;кафе;37.6140751357849940;55.7614465542798000;4,4;280;45,05582307;67,60261423
Тверской;Pho Fighters;кафе;37.6141030000000070;55.7632767595257950;4,9;1157;57,12790397;93,55102152
Тверской;Bebe de la Mer;ресторан;37.6141470000000030;55.7681147609316450;4,4;32;35,51198679;47,08855762
Тверской;Subzero;ресторан;37.6141470000000030;55.7681147609316450;4,4;220;43,99471002;65,32179837
Тверской;Волшебнутый кофе;кафетерий;37.6141470000000030;55.7681147609316450;4,3;13;30,83151404;37,02808716
Тверской;БУРГЕР ХИРОУС;кафе;37.6141530000000090;55.7599457585582240;4,5;335;46,88685323;71,53833307
Тверской;Бродо;бар;37.6142102801460680;55.7677697074390440;4,8;35;39,17048759;54,95234428
Тверской;Город Сад;магазин (отдел кулинарии);37.6142247065993370;55.7620195774255270;4,2;71;37,24497026;50,81352943
Тверской;МАРТ;кафе;37.6142689256131890;55.7669750917601590;4,3;246;43,4751574;64,20504285
Тверской;Рюмка водки Лепс;ресторан;37.6143765436381440;55.7680728287789900;4,4;384;46,44557605;70,58982717
Тверской;IDEALISTE;кафе;37.6143765436381440;55.7680728287789900;4,7;35;38,35443576;53,19827675
Тверской;Бургер Кинг;предприятие быстрого обслуживания;37.6143782571249330;55.7604447172472600;4,2;175;41,03381587;58,95748653
Тверской;Прайм;кафе;37.6143948945288930;55.7604394109655960;4,2;68;37,06364714;50,42378335
Тверской;Hookah Place;бар;37.6144440000000060;55.7629507594310990;4,9;375;51,60727144;81,68466453
Тверской;Krispy Krem;кафе;37.6144889999999990;55.7604377587011300;4,2;54;36,09544778;48,34268137
Тверской;МУ-МУ;кафе;37.6146039399168690;55.7557804956663650;4,3;379;45,33363748;68,19976409
Тверской;Бургер Кинг;кафе;37.6146039399168690;55.7557804956663650;4,2;127;39,68730054;56,06321102
Тверской;Данкин Донатс;кафе;37.6146039399168690;55.7557804956663650;4;54;34,37661693;44,64813001
Тверской;ТЕРЕМОК;ресторан;37.6146039399168690;55.7557804956663650;4,2;156;40,55111001;57,9199315
Тверской;KFC;ресторан;37.6146039399168690;55.7557804956663650;4,3;159;41,59851987;60,17129295
Тверской;Шоколадница;кафе;37.6146257177811950;55.7557913293247580;4,1;175;40,05682026;56,8574774
Тверской;Кофе Хауз;кафе;37.6146257177811950;55.7557913293247580;4,1;33;33,21687876;42,1553238
Тверской;MOLLUSKA;кафе;37.6146860000000060;55.7615647590284740;4,6;62;40,16860103;57,09774525
Тверской;Tehnikum;ресторан;37.6147356573043790;55.7608262720630210;4,6;1023;53,06405878;84,81596489
Тверской;Хлеб насущный;кафе;37.6147800421395290;55.7602271044253470;4,4;80;39,54366601;55,7544749
Тверской;Марчеллис;ресторан;37.6147800421395290;55.7602271044253470;4,4;387;46,47981747;70,66342759
Тверской;ХИЩNIK;кафе;37.6147800421395290;55.7602271044253470;4,2;85;38,00085006;52,43825982
Тверской;Траттория на Столешниковом;кафе;37.6147820446703000;55.7633310895307000;4,5;283;46,12777688;69,90673181
Тверской;Camera Obscura Coffee;кафетерий;37.6147979999999930;55.7634077595638620;4,3;31;34,56837678;45,06030938
Тверской;Камергерка;кафе;37.6148330970102000;55.7602862004080000;4,4;72;39,08007974;54,75801659
Тверской;Les Ole;кафе;37.6149713999219630;55.7662209364789520;4,7;34;38,21819434;52,9054318
Тверской;ГУСТО;ресторан;37.6149922038667000;55.7607001329202000;4,1;170;39,93797135;56,60201691
Тверской;Шоколадница;кафе;37.6150333986295000;55.7606700103564000;4,1;175;40,05682026;56,8574774
Тверской;Ciao Pizza;предприятие быстрого обслуживания;37.6150360000000030;55.7554677572579180;2,5;13;17,92529886;9,286744908
Тверской;Dim Sum;предприятие быстрого обслуживания;37.6150360000000030;55.7554677572579180;3,5;46;29,51834054;34,20547845
Тверской;Чача Room;ресторан;37.6150360000000030;55.7554677572579180;4,2;60;36,53796194;49,29384612
Тверской;Cinnabon;кафе;37.6150360000000030;55.7554677572579180;4,1;33;33,21687876;42,1553238
Тверской;Eat Georgian;кафе;37.6150360000000030;55.7554677572579180;4,1;60;35,66801047;47,42392366
Тверской;Суши-маркет;закусочная;37.6150360000000030;55.7554677572579180;3,5;18;26,2343968;27,14678573
Тверской;Франклинс бургер;кафе;37.6150360000000030;55.7554677572579180;4;34;32,52612284;40,67057431
Тверской;Osteria Mario;предприятие быстрого обслуживания;37.6150360000000030;55.7554677572579180;4,3;128;40,66596193;58,16680066
Тверской;Крошка Картошка;кафе;37.6150360000000030;55.7554677572579180;4,2;34;34,15242898;44,16624788
Тверской;Cofix;кафетерий;37.6150360000000030;55.7554677572579180;4,2;86;38,04997343;52,54384834
Тверской;Subway;предприятие быстрого обслуживания;37.6150360000000030;55.7554677572579180;4;43;33,46548121;42,68968382
Тверской;KFC;предприятие быстрого обслуживания;37.6150360000000030;55.7554677572579180;4,3;802;48,55679881;75,1278077
Тверской;Menza;кафе;37.6150360000000030;55.7554677572579180;4,3;171;41,91138509;60,843783
Тверской;Tuk Tuk;кафе;37.6150360000000030;55.7554677572579180;4,3;13;30,83151404;37,02808716
Тверской;FARШ;закусочная;37.6150360000000030;55.7554677572579180;4,3;55;37,0337645;50,35955191
Тверской;Макдоналдс;ресторан;37.6150360000000030;55.7554677572579180;4,4;1568;52,6359961;83,89586298
Тверской;Лепим и варим;кафе;37.6150782993879460;55.7631723118428300;4,5;412;47,81787091;73,53951465
Тверской;Журавли;бар;37.6151150000000100;55.7628207593933280;4,7;70;41,61222751;60,20075693
Тверской;Sinners and Begginers win bar;бар;37.6151230000000180;55.7661637603646550;4,4;84;39,75834273;56,21591308
Тверской;Хачапури;ресторан;37.6152655740736000;55.7603811641466000;4,8;71;42,5656803;62,25016179
Тверской;Столешников;кафе;37.6153269760670880;55.7621025986240330;4,5;133;42,72983691;62,60300921
Тверской;Il Letterato;ресторан;37.6154029999999790;55.7608217588126610;4,4;202;43,61912669;64,51449849
Тверской;Винный базар;бар;37.6159552177063570;55.7682759598738610;4,8;190;47,29053244;72,40602379
Тверской;Марокко;кафе;37.6159617881900000;55.7641690224639000;4,3;102;39,6896149;56,06818562
Тверской;Rebellion;кафе;37.6159949999999910;55.7676637608005730;4,4;24;34,24618567;44,36777375
Тверской;Шортлист.Букс и Спиритс;бар;37.6160319999999830;55.7659417603001440;4,5;89;40,9221295;58,71742158
Тверской;SOBRANIE;кафе;37.6161509999999950;55.7590867583087470;4,2;18;31,48127616;38,4247223
Тверской;Lets Rok bar;бар;37.6161669032032000;55.7607801191359000;4,6;605;50,64783376;79,62239542
Тверской;Бодреро;кафе;37.6162119999999970;55.7648217599746870;4,8;89;43,65027147;64,58144283
Тверской;ЭЛЕФАНТ;бар;37.6162143439575000;55.7693501446096000;4,3;131;40,76558029;58,38092594
Тверской;САХЛИ;ресторан;37.6163769978997000;55.7704928990061000;4,6;256;46,6915991;71,1186429
Тверской;Куба Либре;бар;37.6164265464846000;55.7608724161632000;4,4;300;45,35939171;68,25512166
Тверской;Волконский;кафе;37.6167960000000080;55.7572757577828430;4,4;30;35,2280173;46,47817768
Тверской;Джеймис Италиан;ресторан;37.6167960000000080;55.7572757577828430;4,5;291;46,25322054;70,17636745
Тверской;BELKA BAR;кафе;37.6169139999999870;55.7637027596495610;4,2;127;39,68730054;56,06321102
Тверской;Manneken Pis;кафе;37.6169148255806720;55.7637314059991950;4,7;105;43,51791352;64,29694524
Тверской;Peshi;ресторан;37.6171268004783170;55.7570913130581760;4,5;77;40,27039024;57,31653668
Тверской;DANTE bar and kitchen;кафе;37.6171413927528850;55.7614574432119600;4,4;179;43,08724636;63,37124512
Тверской;MyBar Зеленая собака;бар;37.6171413927528850;55.7614574432119600;4,3;44;36,07424723;48,29711171
Тверской;Starbucks;кафе;37.6173399913988360;55.7572664203530270;4,3;276;43,96995552;65,26858966
Тверской;Страна которой нет;ресторан;37.6173399913988360;55.7572664203530270;4,4;548;48,01036008;73,95326166
Тверской;La Bottega Siciliana;ресторан;37.6173399913988360;55.7572664203530270;4,7;184;46,15449793;69,96416755
Тверской;Гудман;ресторан;37.6173399913988360;55.7572664203530270;4,7;191;46,32998499;70,34136926
Тверской;Барашка;кафе;37.6173470707502000;55.7640792106841000;4,4;99;40,48127616;57,7698267
Тверской;АВРОРА;ресторан;37.6173544806952000;55.7630150943861000;4,3;28;34,13071119;44,11956644
Тверской;Piccolino;кафе;37.6173796604721030;55.7689089901196840;4,3;101;39,64725002;55,97712418
Тверской;ИТАЛЬЯНЕЦ;ресторан;37.6173957342464000;55.7773119309109000;4,5;306;46,4793988;70,66252767
Тверской;Корчма Тарас Бульба;кафе;37.6174911841514000;55.7740612144603000;4,4;495;47,56280297;72,99125733
Тверской;Ketch up;бар;37.6175083267804000;55.7612867031506000;4,5;506;48,74268085;75,52735297
Тверской;У Сальваторе;кафе;37.6175806533817150;55.7775420542261320;4,6;326;47,80351081;73,50864825
Тверской;FUMISAWA SUSHI;кафе;37.6178485618175000;55.7616452706694000;4,6;72;40,856447;58,57623994
Тверской;Мята Lounge;бар;37.6179440000000010;55.7657047602312730;4,3;189;42,34174396;61,76882048
Тверской;Пита и сувлаки;кафе;37.6182939999999990;55.7744427627713860;4,9;319;50,81477031;79,9812182
Тверской;Iliadis;кафе;37.6182939999999990;55.7744427627713860;4,3;17;31,98504918;39,50756025
Тверской;CUTFISH;ресторан;37.6183839999999990;55.7629557594325500;4,4;63;38,49254161;53,49512921
Тверской;БОК;ресторан;37.6184235230594620;55.7642408090387460;4,2;51;35,85538244;47,82667148
Тверской;Клава;бар;37.6184235230594620;55.7642408090387460;4,4;149;42,28011256;61,63634649
Тверской;Mendeleev Bar;бар;37.6184289999999990;55.7641917597916360;4,6;353;48,16953592;74,29540313
Тверской;DO NOT DISTURB;бар;37.6184289999999990;55.7641917597916360;4,5;45;37,85324704;52,12099362
Тверской;Большой;ресторан;37.6184752127079000;55.7612837454198000;4,4;219;43,97466443;65,27871124
Тверской;Чайхона № 1 Тамерлан;ресторан;37.6184815605151430;55.7638999909895010;4,3;276;43,96995552;65,26858966
Тверской;Nativ;бар;37.6188437433814000;55.7732426839790000;4,4;36;36,03023215;48,20250324
Тверской;Шоколадница;кафе;37.6189819999999950;55.7563817575232650;4,2;170;40,91206822;58,6957953
Тверской;Куршевель;ресторан;37.6190218666810000;55.7616896989534000;4,3;55;37,0337645;50,35955191
Тверской;Chips;бар;37.6192042650227520;55.7618712226340630;4,3;194;42,45402188;62,01015693
Тверской;LALTRO BOSCO;ресторан;37.6192289999999760;55.7628287593956390;4,2;25;32,86099325;41,39036352
Тверской;Sybarite;ресторан;37.6194899999999990;55.7732167624148540;4,3;173;41,96138566;60,95125701
Тверской;Бургер Хироус;ресторан;37.6195556079401000;55.7733241547174000;4,7;354;49,22999537;76,5748141
Тверской;RAMEN;ресторан;37.6195680000000010;55.7721507621049000;4,7;311;48,62132656;75,26650726
Тверской;ЦИРК;бар;37.6195680000000010;55.7721507621049000;4,6;83;41,51044965;59,98198989
Тверской;На кранах;бар;37.6195749309063530;55.7717606392603140;4,8;439;51,31041408;81,04658268
Тверской;BURO TSUM;ресторан;37.6195859999999770;55.7611907589198240;4,7;191;46,32998499;70,34136926
Тверской;Кулинария 24;магазин (отдел кулинарии);37.6196350000000090;55.7717207619798780;3,7;12;26,23328429;27,14439443
Тверской;Цветной 19;бар;37.6196350000000090;55.7717207619798780;4,7;139;44,83632736;67,13081784
Тверской;Starbucks;кафе;37.6196752527940250;55.7629573521617490;4,4;126;41,54238921;60,05064256
Тверской;Хинкальная;кафе;37.6197921997444000;55.7631790982778000;4,5;782;50,70161217;79,73798974
Тверской;La Duree;ресторан;37.6198502495413360;55.7557550144596310;4,8;185;47,16252485;72,13087711
Тверской;Дабл Би;кафе;37.6200649881273460;55.7711555020557770;4,3;42;35,87421116;47,86714298
Тверской;Майкл Коллинз;кафе;37.6200691336598960;55.7720405456179830;4,8;357;50,31794865;78,91332186
Тверской;J.Z. Peking Duck;ресторан;37.6201219999999950;55.7719857620569430;4,5;117;42,15304854;61,36322796
Тверской;Лепим и Варим;кафе;37.6201370000000000;55.7711267618071820;4,3;17;31,98504918;39,50756025
Тверской;Брикет Маркет;предприятие быстрого обслуживания;37.6201370000000000;55.7711267618071890;4,3;18;32,23083036;40,03585609
Тверской;Pizza Hut Пицца Хат;предприятие быстрого обслуживания;37.6201610000000030;55.7698977614499190;3,9;51;33,29428369;42,32170229
Тверской;KFC;предприятие быстрого обслуживания;37.6202329999999920;55.7698947614490380;4,3;128;40,66596193;58,16680066
Тверской;ПРАЙМ;кафе;37.6204089015075670;55.7701017076819600;4,1;32;33,09071496;41,88414025
Тверской;Валенок;ресторан;37.6204519044985300;55.7688553947766010;4,5;1268;52,87664844;84,41313461
Тверской;Тануки;бар;37.6204519044985300;55.7688553947766010;4,2;102;38,7666006;54,08420695
Тверской;СТАРАЯ БАШНЯ;ресторан;37.6205152482358760;55.7567983068176570;4,3;48;36,44839615;49,10132838
Тверской;Krispy Krem;кафе;37.6206284489113260;55.7721541884835760;4,2;60;36,53796194;49,29384612
Тверской;ЛАВАШ;ресторан;37.6206445834923000;55.7694081420101000;4,3;69;38,00888977;52,45554083
Тверской;ПИПЛ ЭНД ПАСТА;кафе;37.6206526588214130;55.7728655065951170;4,4;236;44,30360876;65,98576263
Тверской;BUBA by SYMOSUN;кафе;37.6206572465440980;55.7693185336729090;4,3;108;39,93539608;56,59648146
Тверской;Варка;кафе;37.6206572465440980;55.7693185336729090;4,5;111;41,91615174;60,8540287
Тверской;Пироги,вино и гусь;кафе;37.6206687987614640;55.7725100962713040;4,7;340;49,04034428;76,16716742
Тверской;Cofix;кафетерий;37.6207189999999940;55.7727547622805280;4,2;37;34,50757001;44,92960791
Тверской;OneDoubleCoffee;кафетерий;37.6207189999999940;55.7727547622805280;4,3;42;35,87421116;47,86714298
Тверской;Плюшки подружки;кафетерий;37.6207189999999940;55.7727547622805280;4,5;20;34,20406107;44,27722877
Тверской;Starbucks;кафе;37.6207192084372580;55.7732630908033970;4,2;103;38,80757653;54,17228292
Тверской;ПРАЙМ;кафе;37.6207192084372580;55.7732630908033970;4,3;56;37,11124407;50,52609085
Тверской;ШОКОЛАДНИЦА;кафе;37.6207193643913000;55.7707694278433000;4,2;170;40,91206822;58,6957953
Тверской;Петров и Васечка;бар;37.6207261176581720;55.7693006802460690;4,9;233;49,27542233;76,67245737
Тверской;Вьетнамская кухня Pho №1;кафе;37.6207261176581720;55.7693006802460690;4,8;46;40,4822956;57,77201794
Тверской;Циркуль;бар;37.6207261176581720;55.7693006802460690;4,3;4;25,76329755;26,13417859
Тверской;Блэк стар бургер;кафе;37.6207276452445000;55.7698952473140000;4,2;1073;48,6502125;75,32859632
Тверской;Падре Берлускони;ресторан;37.6207500000000010;55.7696707613839210;4,2;21;32,12870902;39,81635076
Тверской;Hookun Place;бар;37.6207509999999910;55.7695007613345130;4,8;21;36,71852459;49,6819576
Тверской;УЗБЕКИСТАН;ресторан;37.6207535886674000;55.7664389952584000;4,6;280;47,10381503;72,00468292
Тверской;Сицилиец;кафе;37.6207810000000010;55.7692657612661980;4,2;5;26,10135401;26,8608161
Тверской;Хинкальная;кафе;37.6208196795187000;55.7722099044639000;4,5;782;50,70161217;79,73798974
Тверской;Грабли;ресторан;37.6208338416253000;55.7699415339292000;4,4;360;46,16160656;69,97944722
Тверской;Dogs in the fog;бар;37.6208910000000000;55.7667857605454100;4,7;21;35,95355533;48,03768979
Тверской;Реберная № 1;ресторан;37.6209073603411850;55.7571308338018030;4,5;421;47,91511359;73,74853352
Тверской;ВАНИЛЬНОЕ НЕБО;кафе;37.6211139999999990;55.7568040000000020;4,2;91;38,28732471;53,05402449
Тверской;Вареничная №1;ресторан;37.6214260000000000;55.7566290000000000;4,4;846;49,921034;78,06017127
Тверской;БОСКО КАФЕ;кафе;37.6214486563444770;55.7546958032566240;4,3;233;43,24169715;63,70323029
Тверской;БОСКО БАР;бар;37.6214486563444770;55.7546958032566240;4,2;12;29,77832271;34,7642987
Тверской;КОФЕМАНИЯ;кафе;37.6215290000000020;55.7546607570236360;4,3;51;36,70908202;49,6616612
Тверской;МЕТРОПОЛЬ;ресторан;37.6216345972977210;55.7584370081971700;4,8;90;43,70390331;64,69672212
Тверской;CIDERELLA;кафе;37.6217349744591590;55.7567986384602610;4,3;96;39,42892902;55,50785279
Тверской;Il pizzaolo;ресторан;37.6217349744591590;55.7567986384602610;4,5;189;44,3111274;66,00192362
Тверской;Теремок;ресторан;37.6225752462698400;55.7569684394734400;4,2;156;40,55111001;57,9199315
Тверской;Хлеб насущный;кафе;37.6225752462698400;55.7569684394734400;4,3;131;40,76558029;58,38092594
Тверской;Руккола;кафе;37.6225752462698400;55.7569684394734400;4,3;415;45,72382944;69,03846455
Тверской;Surf;кафе;37.6225752462698400;55.7569684394734400;4,5;90;40,97240935;58,82549592
Тверской;Вареничная №1;кафе;37.6232893280697520;55.7554565361161420;4,4;149;42,28011256;61,63634649
Тверской;KFC;ресторан;37.6233279644331020;55.7580836982765080;4,2;1656;50,47278819;79,24614265
Тверской;Сабвэй;ресторан;37.6233279644331020;55.7580836982765080;4;43;33,46548121;42,68968382
Тверской;Wine and Crab;кафе;37.6239480000000060;55.7584077581115660;4,7;282;48,16126311;74,27762109
Тверской;Кафе Рогалик;кафе;37.6244308971860590;55.7579618196195810;4,2;72;37,30371248;50,93979324
Тверской;Макдоналдс;предприятие быстрого обслуживания;37.6244779999999960;55.7578667579544670;4,2;204;41,67781876;60,34174242
Тверской;Вокруг света;кафе;37.6244779999999960;55.7578667579544670;4,6;1008;52,99611072;84,66991352
Тверской;Дублинец;ресторан;37.6244780000000110;55.7578887579608560;4,8;253;48,66508644;75,36056719
Тверской;Омар Хаям;бар;37.6247570000000020;55.7572227577674790;4,8;96;44,01368821;65,36259115
Тверской;Bon App;ресторан;37.6248310792613980;55.7590952082183260;4,4;169;42,83430316;62,82755483
Тверской;МСК Московская сеть кальянных;бар;37.6248310792613980;55.7590952082183260;4,3;234;43,2601126;63,74281348
Тверской;Beamonde Lounge;кафе;37.6248360000000020;55.7590957583113680;4,6;169;44,78131694;67,01257537
Тверской;JAWSSPOT;бар;37.6248360000000020;55.7590957583113680;4,9;60;42,62762227;62,38330332
Тверской;Cofix;кафе;37.6249069999999860;55.7586297581760140;4,2;25;32,86099325;41,39036352
Тверской;Рыбы нет;ресторан;37.6255946863568200;55.7587803688397160;4,6;204;45,64713483;68,87361285
Тверской;FARШ;ресторан;37.6255946863568200;55.7587803688397160;4,5;810;50,85991995;80,07826536
Тверской;Кафе Кофемания;кафе;37.6261077374650200;55.7583546502838700;4,5;462;48,33330785;74,64742369
Тверской;Ресторан, бар «Мандарин»;ресторан;37.6261077374650200;55.7583546502838700;4,5;372;47,35828818;72,55166178
Тверской;Кофейня Просвет;кафе;37.6262249999999840;55.7532147566038820;4,3;46;36,2653898;48,70796429
Тверской;Барка;бар;37.6262249999999840;55.7532147566038820;4,6;83;41,51044965;59,98198989
Тверской;Восход;ресторан;37.6263289999999980;55.7507287558823630;4,7;530;51,1268218;80,65195916
Тверской;Кафе «Гастрономический центр Зарядье»;кафе;37.6263289999999980;55.7507287558823630;4,8;1595;57,50303617;94,35735167
Тверской;Ресторан Casa Agave;ресторан;37.6263482460330040;55.7572024441211200;4,3;516;46,66049089;71,05177717
Тверской;The Old School Pab;бар;37.6263482460330040;55.7572024441211200;4,7;471;50,57213292;79,45967978
Тверской;Мята Platinum;кафе;37.6264659999999940;55.7581907580485630;4,7;24;36,58115288;49,38668313
Тверской;Ткемали;кафе;37.6267109999999930;55.7580517580081860;4,5;222;45,03531406;67,558531
Тверской;ПОРТО МАЛЬТЕЗА;ресторан;37.6267489684396070;55.7536301250228380;4;25;31,29618404;38,02687492
Тверской;Высота 5642;ресторан;37.6271360000000000;55.7565887575833870;4,5;355;47,14779589;72,09921785
Тверской;Траппист;бар;37.6271360000000000;55.7565887575833870;4,9;598;53,89392861;86,59973361
Тверской;Контрразведка;ресторан;37.6271870000000130;55.7579147579684150;4,6;84;41,56554013;60,10040445
Тверской;Разведка;кафе;37.6272019369627340;55.7579651913193860;4,8;737;53,79723878;86,39190307
Тверской;Шоколадница;кафе;37.6279814076293770;55.7558553363473020;4,2;292;43,18408075;63,57938638
Тверской;Натахтари;ресторан;37.6283212860245800;55.7572329244500300;4,6;369;48,37344742;74,73370194
Тверской;Либерти;ресторан;37.6344148934090000;55.7535657311265000;4,5;354;47,13510195;72,07193277
Аэропорт;Максима пицца;ресторан;37.5131790000000080;55.8060617719793300;4,3;388;45,43455476;68,41668134
Аэропорт;Cofix;кафе;37.5131790000000080;55.8060617719793300;4;3;22,8151299;19,7972218
Аэропорт;Кренделькофф;кафе;37.5132755169419240;55.8060592279005970;4,9;72;43,52099789;64,30357497
Аэропорт;KFC;предприятие быстрого обслуживания;37.5148250000000020;55.8057447718868720;4,2;49;35,68736003;47,4655147
Аэропорт;Pho NONG Вьетнамская кухня;кафе;37.5148250000000020;55.8057447718868720;4,8;13;34,41657381;44,73401557
Аэропорт;Бургер Кинг;предприятие быстрого обслуживания;37.5149404733609090;55.8058314447055040;4,2;126;39,65409879;55,99184531
Аэропорт;Vместо Sushi;кафе;37.5151040779160000;55.8057684448072000;3,9;22;30,01522929;35,27351898
Аэропорт;Кофе Хауз;кафе;37.5165682858082620;55.8052032583400010;4;138;38,12969548;52,7152074
Аэропорт;Пекарня на Соколе;кафе;37.5168360000000050;55.8069327722333450;3,8;25;29,73137484;34,66338632
Аэропорт;Subway;кафе;37.5168378559714450;55.8063782128117580;4,3;167;41,80960519;60,62501158
Аэропорт;Французская выпечка;кафе;37.5168830000000000;55.8050867716950090;4,2;26;33,02572024;41,74443695
Аэропорт;Питерский Кот;бар;37.5168830000000000;55.8050867716950090;4,8;38;39,56523046;55,80082674
Аэропорт;Милти;кафе;37.5168830000000000;55.8050867716950090;3,8;6;24,30833269;23,00679557
Аэропорт;Coffee In;кафе;37.5171769999999900;55.8066707721569270;3,3;5;20,50820672;14,83859184
Аэропорт;Андерсон;кафе;37.5176789985672000;55.8065643447987000;4,3;601;47,31619002;72,46117363
Аэропорт;Хуан Хэ;ресторан;37.5188599999999890;55.8104737732662100;4,3;138;40,98942265;58,86206524
Аэропорт;Тайм Авеню;кафе;37.5190222752556370;55.8116809569526500;4,4;85;39,81041435;56,32783872
Аэропорт;Папа Джонс;кафе;37.5191823480857710;55.8080686504374770;4,1;119;38,47560408;53,45872273
Аэропорт;Академия;кафе;37.5198455227459890;55.8044851415550700;4,2;98;38,59857819;53,72305017
Аэропорт;Ичибан Боши;кафе;37.5198630000000000;55.8052450000000000;4,2;84;37,95114534;52,33142171
Аэропорт;Прайм стар;кафе;37.5198630000000000;55.8052450000000000;4,3;44;36,07424723;48,29711171
Аэропорт;Кулинарная лавка братьев Караваевых;кафе;37.5206390000000030;55.8059297719408320;4,7;253;47,65123047;73,18132835
Аэропорт;STOLESHNIKOV;кафе;37.5219360000000040;55.8055377718265220;4,4;26;34,59837359;45,1247862
Аэропорт;Cure bar;ресторан;37.5254384541652680;55.8028872874896040;4,5;188;44,28725467;65,95061023
Аэропорт;Черчилль паб;ресторан;37.5257580470878690;55.8028026080780820;4,6;368;48,36096437;74,70687018
Аэропорт;РИС;ресторан;37.5259930000000000;55.8057287718822150;3,7;28;29,36828638;33,88294362
Аэропорт;KFC;предприятие быстрого обслуживания;37.5279949999999900;55.8082217726093010;4,3;165;41,75779734;60,51365287
Аэропорт;ЧайханаХалаль;предприятие быстрого обслуживания;37.5292520000000140;55.8079137725194700;4,1;34;33,33927591;42,41841109
Аэропорт;Шаурма базара нет;предприятие быстрого обслуживания;37.5292520000000140;55.8079137725194700;4,1;25;32,07858864;39,70861922
Аэропорт;Кафе-бистро Вкуснота;кафе;37.5299527870201000;55.8084032938968000;4,3;137;40,95814978;58,79484559
Аэропорт;Хинкальная, Шашлыки;кафе;37.5299817920170540;55.8077608861010790;4,3;67;37,88241006;52,18367826
Аэропорт;Домино'с Пицца;ресторан;37.5300668583449520;55.8083508782933750;4,2;90;38,2409154;52,95426972
Аэропорт;Корчма Тарас Бульба;ресторан;37.5311640000000040;55.8020927708220850;4,5;549;49,10970882;76,31626347
Аэропорт;Теремок;кафе;37.5319231172726050;55.8018396837777290;4;13;28,68047817;32,40453012
Аэропорт;Иль Патио;ресторан;37.5319231172726050;55.8018396837777290;4,2;501;45,45146041;68,45301929
Аэропорт;Макдоналдс;предприятие быстрого обслуживания;37.5319810000000020;55.8018267707445260;4,3;200;42,58499648;62,29168106
Аэропорт;Шоколадница;кафе;37.5319810000000020;55.8018267707445260;4;113;37,33023202;50,99679582
Аэропорт;Джонджоли;кафе;37.5320270000000060;55.8021037708252760;4,4;102;40,6126292;58,05216428
Аэропорт;KFC;предприятие быстрого обслуживания;37.5320270000000060;55.8021037708252760;4,2;101;38,72522095;53,99526322
Аэропорт;CINNABON;кафе;37.5320270000000060;55.8021037708252760;4;5;24,85843239;24,18921071
Аэропорт;Cofix;кафе;37.5320270000000060;55.8021037708252760;4,1;10;28,32179664;31,63355994
Аэропорт;Штолле;кафе;37.5324736992688060;55.8010488819887910;4,3;77;38,48059511;53,46945073
Аэропорт;Holy Berry;кафе;37.5338410000000020;55.8008637704638200;4,4;9;29,93053696;35,09147653
Аэропорт;Кулинарная лавка братьев Караваевых;кафе;37.5340940000000240;55.8025327709503500;4,4;204;43,66247679;64,60767764
Аэропорт;Французская выпечка;кафе;37.5341075918305620;55.8006442780120650;4,4;122;41,40044142;59,74553202
Аэропорт;Coffee be Good;кафе;37.5342296363087870;55.8032579533731980;4,2;6;26,86710455;28,50676322
Аэропорт;ПРАВDА Кофе;предприятие быстрого обслуживания;37.5343679999999860;55.8032507711596750;4,5;42;37,54277912;51,45365647
Аэропорт;Kuzina;кафе;37.5344080000000060;55.8043137714696160;4,7;165;45,6422436;68,86309938
Аэропорт;COFFEE TEABAR;кафе;37.5352650000000100;55.7997617701426170;4,3;9;29,25029748;33,62933168
Аэропорт;Crema espresso bar;кафе;37.5352948170786650;55.7997502800995520;4,3;63;37,61771112;51,61471952
Аэропорт;Французская выпечка;кафе;37.5353469955150130;55.8041468108253510;4,4;57;38,0521744;52,54857923
Аэропорт;Кофе-Бин;кафе;37.5376990066557000;55.7985985819297000;4,3;221;43,01433142;63,21451764
Аэропорт;Кофейня Коза Ностра;кафе;37.5383160000000020;55.8088587727950910;4,7;79;42,18070478;61,42267383
Аэропорт;Кафе HookahPlace Aeroport;кафе;37.5383160000000020;55.8088587727950910;4,8;59;41,67699662;60,33997529
Аэропорт;ХЛЕБ&МЯСО;предприятие быстрого обслуживания;37.5395949999999910;55.8055177718206890;4,4;73;39,14077036;54,88846841
Аэропорт;Суши Мастер;кафе;37.5395949999999910;55.8055177718206890;4,1;39;33,90180051;43,62753299
Аэропорт;EAT STREET;кафе;37.5395949999999910;55.8055177718206890;4,6;22;35,40257814;46,85338854
Аэропорт;Му-Му;бар;37.5395949999999910;55.8055177718206890;4,3;125;40,56398087;57,94759684
Аэропорт;Сатва вегетарианский ресторан;ресторан;37.5409410000000110;55.7972987694248420;4,4;120;41,32771249;59,58920439
Аэропорт;ELEMENT COFFEE;кафе;37.5415919999999870;55.8061277719985680;4,2;7;27,51453741;29,89839169
Аэропорт;FISH Кафе Sea-Тория, Паста&Пицца;кафе;37.5428488479628000;55.7963973078446000;4,3;119;40,35246282;57,49294809
Аэропорт;Золотая Бухара;ресторан;37.5432554555945470;55.7962359739738220;4,4;167;42,78192159;62,71496294
Аэропорт;ТРАТОРИЯ ITALIANA, Casa di Flavio;кафе;37.5439700000000090;55.7960817690702270;4,3;6;27,50679752;29,88175514
Аэропорт;Пекарня «LaPoste»;кафе;37.5442269999999990;55.7962777691273150;4,7;21;35,95355533;48,03768979
Аэропорт;Чайхана Нур;кафе;37.5450000000000020;55.7991227699563690;4,7;27;37,13473314;50,57657959
Аэропорт;Кеклик;кафе;37.5450000000000020;55.7991227699563690;5;28;39,68687348;56,06229306
Аэропорт;ШаурмаTHEPLOV;кафе;37.5451709999999960;55.8067247721726790;3,8;14;27,52806456;29,92746771
Аэропорт;Любить кофе пить;кафе;37.5451930000000190;55.8055537718311780;4,7;15;34,37213582;44,63849806
Аэропорт;Французский Тако;кафе;37.5454859999999970;55.8062937720469710;4,2;2;22,25293294;18,58880415
Аэропорт;CRABETERIA;кафе;37.5454859999999970;55.8062937720469710;4,1;8;27,40690808;29,66704719
Аэропорт;Позитано;кафе;37.5466709999999820;55.7947887686934860;4,3;77;38,48059511;53,46945073
Аэропорт;НУШ ДОНЕР;предприятие быстрого обслуживания;37.5488850000000130;55.8055107718186460;4;5;24,85843239;24,18921071
Аэропорт;TOP Koffe;кафе;37.5488850000000130;55.8055107718186460;4,2;24;32,68954087;41,02183417
Аэропорт;Глобус;бар;37.5502260000000000;55.8036110000000000;3,5;82;31,54161302;38,55441371
Аэропорт;Милти;кафе;37.5505280000000070;55.8036337712713430;4;8;26,73844691;28,23021928
Аэропорт;Карамзин;ресторан;37.5521166143274880;55.7935020228950120;4;8;26,73844691;28,23021928
Аэропорт;Баффет;кафе;37.5548500000000020;55.8008777704679060;4,2;15;30,71552563;36,77877517
Аэропорт;PHO STREET ВЬЕТНАМСКАЯ УЛИЧНАЯ ЕДА;кафе;37.5548500000000020;55.8008777704679060;4,1;11;28,71256838;32,47350661
Аэропорт;Милти;кафе;37.5548500000000020;55.8008777704679060;4,3;7;28,16964544;31,30651761
Аэропорт;ПРАВDА Кофе;кафе;37.5548500000000020;55.8008777704679060;4,3;10;29,7033477;34,60314321
Аэропорт;KFC;предприятие быстрого обслуживания;37.5589180000000130;55.7907867675277980;4,2;47;35,51233471;47,08930546
Аэропорт;Бургер Кинг;предприятие быстрого обслуживания;37.5589180000000130;55.7907867675277980;4,1;14;29,70133281;34,5988123
Аэропорт;Милти;предприятие быстрого обслуживания;37.5589180000000130;55.7907867675277980;4,1;2;21,7231012;17,44995412
Аэропорт;Дагестанская лавка;ресторан;37.5589390000000090;55.7910617676078930;4,3;22;33,09371435;41,8905873
Аэропорт;SERBIЯ;ресторан;37.5589390000000090;55.7910617676078930;4,5;61;39,22219823;55,06349403
Аэропорт;BURGER HEROES;кафе;37.5589390000000090;55.7910617676078930;4,4;82;39,65231351;55,98800792
Аэропорт;Барбекю;ресторан;37.5589390000000090;55.7910617676078930;3,7;12;26,23328429;27,14439443
Аэропорт;Мастер Гурмэ;кафе;37.5596460069107960;55.7932033787302190;3,5;16;25,82215618;26,26069262
Аэропорт;HERITAGE;ресторан;37.5600809009120060;55.7906546500456740;4,2;12;29,77832271;34,7642987
Аэропорт;Чин Чин;кафе;37.5602081037066000;55.7957097611210000;4,3;182;42,17946055;61,41999942
Аэропорт;ЕВРО ДОНЕР;предприятие быстрого обслуживания;37.5603280000000050;55.7957467689726130;3,8;8;25,40152457;25,35656346
Аэропорт;Бар Лес;бар;37.5603280000000050;55.7957467689726130;5;156;48,27513097;74,52237504
Аэропорт;Пекарня Хлебница;кафе;37.5604780000000100;55.7960127690500940;4,3;26;33,81204691;43,43461157
Аэропорт;СушиСтор;бар;37.5605302766402570;55.7958962613999180;4,3;29;34,28160387;44,44390361
Аэропорт;FAN FOOD, HAMSTER;ресторан;37.5607039999999940;55.7894267671317440;4,3;26;33,81204691;43,43461157
Аэропорт;Кофейня KofeINCafe;кафе;37.5637460000000090;55.7930837681968160;4;25;31,29618404;38,02687492
Аэропорт;Promenade Lounge;бар;37.5663440000000010;55.7871827664783670;4,4;8;29,4122916;33,97753092
Аэропорт;Ориентал;бар;37.5665350000000090;55.7875047665721200;4,6;67;40,5253689;57,86460212
Аэропорт;Кухня Кипра;кафе;37.5666790000000010;55.7911737676405010;3,7;12;26,23328429;27,14439443
Аэропорт;Теремок;кафе;37.5666790000000010;55.7911737676405010;3,8;15;27,79023747;30,49099686
Аэропорт;Макдоналдс;предприятие быстрого обслуживания;37.5666790000000010;55.7911737676405010;4,3;190;42,36443531;61,81759453
Аэропорт;Шоколадница;кафе;37.5666790000000010;55.7911737676405010;3,9;66;34,29981722;44,48305241
Аэропорт;Hello Papaya;кафе;37.5675049999999900;55.7885067668638470;4,1;30;32,82610703;41,31537713
Аэропорт;ЛАРИОНОВ ГРИЛЬ;кафе;37.5675069999999780;55.7879077666894430;4,4;133;41,78028498;60,56198907
Аэропорт;Даблби;кафе;37.5680199999999970;55.7883267668114440;3,9;13;27,96346622;30,86334444
Щукино;Сестры;ресторан;37.4995633588858000;55.7907729398205000;3,7;40;30,68798367;36,71957494
Щукино;ЛУКУМ;кафе;37.4943827221794380;55.7935946617290240;4,1;7;26,85942937;28,49026576
Щукино;Хинкальная;кафе;37.4917097933397440;55.7947612698619220;4,2;12;29,77832271;34,7642987
Щукино;Примавера;ресторан;37.4903794752185000;55.7947296845020000;4,5;476;48,46764618;74,93617804
Щукино;БУЛОЧНАЯ № 5;кафетерий;37.4870132366049660;55.7973707444167460;4,3;41;35,77059169;47,64441748
Щукино;СТАРЫЙ БАТУМЪ;кафе;37.4616691099235000;55.8060307318284000;4,3;189;42,34174396;61,76882048
Щукино;СУШИ-СЕТ;закусочная;37.4620687381545070;55.8058795328830680;3,4;41;28,28372366;31,55172373
Щукино;Макдоналдс;предприятие быстрого обслуживания;37.4628707395619000;55.8085751256853000;4,3;272;43,90718068;65,1336579
Щукино;ИНТЕРПАБ;кафе;37.4950357900685000;55.7940059197824000;4,4;196;43,48645332;64,22932292
Щукино;ТАМАДА;ресторан;37.4951216207571000;55.7940300454896000;4,2;76;37,53079481;51,42789673
Щукино;Шоколадница;кафе;37.4946861125473000;55.7947707902281000;4,2;192;41,42319534;59,79444059
Щукино;Додо пицца;ресторан;37.4944121830974170;55.7946267887860540;4,2;146;40,27286259;57,3218509
Щукино;ROTONDA;ресторан;37.4483770000000080;55.8083727726533430;4,4;76;39,31797552;55,2693631
Щукино;Enjoylife;ресторан;37.4549078005041030;55.8092494639285730;4,6;57;39,78181869;56,26637361
Щукино;CAFE DE ARTS;ресторан;37.4871900021128330;55.7926141050969020;4,3;86;38,95592517;54,4911518
Щукино;Д'КАФЕ;кафе;37.4831696973865000;55.8099135789203000;4,1;52;35,08129701;46,16280887
Щукино;ЗАГОРОДНЫЙ;ресторан;37.4767538534234000;55.8098532892240000;4,2;184;41,24444496;59,4102245
Щукино;Домино'с Пицца;ресторан;37.4815567208434080;55.8001713003851660;4,1;79;36,79593396;49,84834562
Щукино;Шашлычная;предприятие быстрого обслуживания;37,48155672;55,8001713;5;98;45,95068832;69,52608775
Щукино;БОКАС ДЕЛЬ ТОРО;ресторан;37.4847148740856000;55.7999284585021000;4,6;189;45,29581912;68,11847519
Щукино;У МАНГАЛА;кафе;37.5002070890499000;55.7896147911656000;4,4;162;42,64817269;62,42747556
Щукино;Ривер Клаб Москов;ресторан;37.4497475521353420;55.8065719473661870;4,5;100;41,44653167;59,84460101
Щукино;Бургер Кинг;предприятие быстрого обслуживания;37.4829122053219000;55.7997956609435000;4,1;51;35,00168286;45,99168175
Щукино;МАКДОНАЛДС;предприятие быстрого обслуживания;37.4832984434193000;55.7997715388082000;4,2;119;39,41403345;55,47583541
Щукино;Starbucks;кафе;37.4827263148855000;55.7996731147451000;4,2;88;38,1465294;52,75139117
Щукино;ТЕРЕМОК;предприятие быстрого обслуживания;37.4829969893982740;55.7997721685114030;4,2;22;32,32409309;40,23632022
Щукино;Чайхона FORYOU;кафе;37.4646206727175580;55.8094880807820600;4,3;193;42,43179961;61,96239113
Щукино;ТЕРЕМОК;предприятие быстрого обслуживания;37.4646206727175580;55.8094880807820600;4,1;11;28,71256838;32,47350661
Щукино;Starbucks;кафе;37.4646206727175580;55.8094880807820600;4;60;34,79805899;45,5540012
Щукино;КОФЕЙНЯ «ШОКОЛАДНИЦА»;кафе;37.4645873533312000;55.8094674319558000;4,1;47;34,66680293;45,27187206
Щукино;Итальянцы Остерия;ресторан;37.4830463488724850;55.7913564057954760;4,4;179;43,08724636;63,37124512
Щукино;Кафетерий № 1;кафе;37.4794003253592510;55.8135414719603920;4,1;23;31,73672405;38,97379629
Щукино;SeDelice;кафе;37.4917097933397440;55.7947612698619220;4,1;9;27,88981853;30,70504197
Щукино;Три правила;предприятие быстрого обслуживания;37.4646206727175580;55.8094880807820600;4,2;33;34,02704654;43,89674382
Щукино;SUBWAY;предприятие быстрого обслуживания;37.4913758845114060;55.7910115527612120;4,2;36;34,39249432;44,68225777
Щукино;Бургер Кинг;предприятие быстрого обслуживания;37.4924933542651640;55.7933838475804930;4,3;223;43,05307042;63,29778542
Щукино;Грузинская пекарня;магазин (отдел кулинарии);37.4903249999999990;55.7938027684062520;4,7;36;38,48683888;53,48287144
Щукино;Вкус Востока;кафе;37.4650560000000180;55.7967217692567060;4,3;83;38,80324641;54,16297552
Щукино;Ibis kitchen;ресторан;37.4959780000000080;55.7985427697873390;4,3;94;39,33839936;55,31326326
Щукино;Теремок;предприятие быстрого обслуживания;37.4936699999999800;55.7929857681682650;4,5;121;42,30432329;61,68838639
Щукино;True Cost;ресторан;37.4951259999999990;55.7939937684618950;4,4;382;46,4225995;70,54044008
Щукино;Суши Make;предприятие быстрого обслуживания;37.4644879999999820;55.8094567729695260;2,8;12;19,85221514;13,42856676
Щукино;QuanViet;предприятие быстрого обслуживания;37.4644879999999820;55.8094567729695260;4;11;28,01226184;30,96822847
Щукино;Плов Базар;предприятие быстрого обслуживания;37.4644879999999820;55.8094567729695260;4,3;9;29,25029748;33,62933168
Щукино;Бургер Кинг;предприятие быстрого обслуживания;37.4644879999999820;55.8094567729695260;4,2;46;35,42200865;46,89515356
Щукино;Крошка Картошка;предприятие быстрого обслуживания;37.4642869459216000;55.8095277232498000;3,4;4;20,37097946;14,54362787
Щукино;Баскин Роббинс;предприятие быстрого обслуживания;37.4646206727175580;55.8094880807820600;3,7;6;23,66863972;21,63180366
Щукино;МАКДОНАЛДС;предприятие быстрого обслуживания;37.4644879999999820;55.8094567729695260;4,3;93;39,29240962;55,21441033
Щукино;KFC;предприятие быстрого обслуживания;37.4936624990533000;55.7930529423880000;4,3;740;48,2108276;74,38415779
Щукино;KFC;предприятие быстрого обслуживания;37.4644879999999820;55.8094567729695260;4,3;52;36,79257979;49,84113599
Щукино;ВОККЕР;предприятие быстрого обслуживания;37.4646206727175580;55.8094880807820600;3,6;17;26,77818071;28,31562533
Щукино;Craft Way Bar;бар;37.4911440000000060;55.7950737687765250;4,7;53;40,30467187;57,39022354
Щукино;Пинта;бар;37.4629150000000100;55.8088357727883850;4,1;311;42,4143487;61,92488117
Щукино;SeDelice;кафе;37.4932390000000030;55.7925397680383530;3,7;15;27,05891543;28,91905228
Щукино;Суши Make;предприятие быстрого обслуживания;37.4829830000000110;55.7997257701321270;2;9;13,60478953;0
Щукино;КОЛБАСОФФ;ресторан;37.4833413587634000;55.7998335948261000;4,4;256;44,66152957;66,75509768
Щукино;Крошка Картошка;предприятие быстрого обслуживания;37.4829551206660000;55.7996991723112000;4,3;8;28,74383043;32,54070301
Щукино;МакКафе;предприятие быстрого обслуживания;37.4644879999999820;55.8094567729695260;4;8;26,73844691;28,23021928
Щукино;Менза;ресторан;37.4634924798529450;55.8097196225933350;4,3;75;38,36743069;53,22620877
Щукино;Хинкальная;ресторан;37.4646690000000010;55.8094637729715760;4,9;76;43,78592728;64,87302903
Щукино;CINNABON;предприятие быстрого обслуживания;37.4646690000000010;55.8094637729715760;4;6;25,58771862;25,7567794
Щукино;Хлебница пекарня;предприятие быстрого обслуживания;37.4925119999999910;55.7933837682842150;4,5;64;39,43823971;55,52786571
Щукино;Траттория il Tortellino;кафе;37.4894782529895000;55.7960203648713000;4,4;189;43,32643568;63,88537205
Щукино;Сонаму;ресторан;37.4735809999999820;55.8034647712220750;4,6;70;40,72686097;58,29770046
Щукино;Oui mon general;кафе;37.4969279999999970;55.7981197696640830;4,8;87;43,54117586;64,34694662
Щукино;KVARTAL;ресторан;37.4970359999999940;55.7972297694047230;4,7;118;44,06651761;65,47614562
Щукино;Крылья;бар;37.4969279999999970;55.7981197696640830;4,4;73;39,14077036;54,88846841
Щукино;Штолле;магазин (отдел кулинарии);37.4922679999999960;55.7937737683978270;4,2;71;37,24497026;50,81352943
Щукино;Пивотека 465;бар;37.4532420000000100;55.8099407731107250;4,7;70;41,61222751;60,20075693
Щукино;69 Pints;бар;37.4906810000000090;55.7912527676635080;4,4;51;37,5627816;51,49665093
Щукино;Botteganova Organic;ресторан;37.4969279999999970;55.7981197696640830;4,5;100;41,44653167;59,84460101
Щукино;Я САМАРКАНД;кафе;37.4764660056897000;55.8106632210042000;4,1;248;41,48625562;59,92998589
Щукино;Modus Vita;бар;37.4829830000000110;55.7997257701321270;4,8;33;38,88805319;54,34526395
Щукино;Burger Club;предприятие быстрого обслуживания;37.4646690000000010;55.8094637729715760;4,2;6;26,86710455;28,50676322
Щукино;КОЛБАСОФФ;ресторан;37.4644586072990000;55.8093468520875000;4,4;224;44,07399145;65,4922103
Щукино;Fix and Go;кафетерий;37.4896230000000090;55.7906077674756700;4,6;13;32,9825499;41,6516442
Щукино;Тайская кухня ТУТ ТОМ ЯМ;закусочная;37.4896230000000090;55.7906077674756700;4,5;19;33,97324124;43,7810917
Щукино;Суши Вок;предприятие быстрого обслуживания;37.4902299999999970;55.7937917684030540;4;15;29,25288155;33,63488601
Щукино;Beer Port;бар;37.4910240000000100;55.7879817667110060;4,4;34;35,77873513;47,66192145
Щукино;Плов Центр;кафе;37.4537940000000020;55.8102677732061070;3,2;2;16,95461557;7,20030385
Щукино;Coffee Way;кафетерий;37.4646690000000010;55.8094637729715760;2,9;7;18,99813297;11,59275468
Щукино;Андерсон;кафе;37.4828024257373330;55.7998828818673330;4,3;135;40,89491335;58,65892166
Щукино;Boozer;бар;37.4955460000000190;55.7928027681149670;4,5;50;38,32736936;53,14009871
Щукино;Донер 42;закусочная;37.4923369999999990;55.7932767682530370;4,5;190;44,33487416;66,05296623
Щукино;Local Burger. Шеф Здесь;предприятие быстрого обслуживания;37.4604179999999970;55.8098677730894220;4,3;22;33,09371435;41,8905873
Щукино;Близкая Азия;предприятие быстрого обслуживания;37.4604179999999970;55.8098677730894220;2,9;8;19,38537401;12,42511227
Щукино;Две совы;кафетерий;37.4604179999999970;55.8098677730894220;4;7;26,20432134;27,08213984
Щукино;Якитория;ресторан;37.4604179999999970;55.8098687730897250;4,3;185;42,24976185;61,57110896
